name,address,city,state,zip,telephone,type,county,lattitude,longitude,emergency,vaccination,dental,vision,pediatric,preventative
HOUSTON METHODIST SAN JACINTO HOSPITAL ALEXANDER CAMPUS,1700 JAMES BOWIE DRIVE,BAYTOWN,TX,77520,(281) 420-8765,GENERAL ACUTE CARE,HARRIS,29.74762022,-94.94547682,y,y,y,y,y,y
WOODS AT PARKSIDETHE,349 OLDE RIDENOUR ROAD,COLUMBUS,OH,43230,(614) 471-2552,SPECIAL,FRANKLIN,40.0271427,-82.88184334,y,y,y,y,y,y
DAYTON CHILDREN'S HOSPITAL,ONE CHILDRENS PLAZA,DAYTON,OH,45404,(937) 641-3300,CHILDREN,MONTGOMERY,39.77424249,-84.16802733,y,y,y,y,y,n
VIBRA HOSPITAL OF MAHONING VALLEY,8049 SOUTH AVENUE,BOARDMAN,OH,44512,(330) 726-5021,LONG TERM CARE,MAHONING,41.0051693,-80.63297231,n,n,n,n,n,y
HAVEN BEHAVIORAL SENIOR CARE OF DAYTON,ONE ELIZABETH PLACEE3 SUITE A,DAYTON,OH,45417,(615) 393-8879,PSYCHIATRIC,MONTGOMERY,39.74773987,-84.19939762,y,n,n,n,n,y
CHG CORNERSTONE HOSPITAL OF OKLAHOMA,1900 GORDON COOPER DRIVE2ND FLOOR,SHAWNEE,OK,74801,(405) 395-5800,LONG TERM CARE,POTTAWATOMIE,35.29726161,-96.92709569,n,n,n,n,n,y
MARY HURLEY HOSPITAL,6 NORTH COVINGTON AVENUE,COALGATE,OK,74538,(580) 927-2327,GENERAL ACUTE CARE,COAL,34.53934684,-96.2237315,y,y,y,y,y,y
TRINITY HOSPITALS,1 W BURDICK EXPY,MINOT,ND,58701,(701) 857-5000,GENERAL ACUTE CARE,WARD,48.23222596,-101.2940853,y,y,y,y,y,y
LIFEBRITE COMMUNITY HOSPITAL OF STOKES,1570 NC 8 & 89 HWY NORTH,DANBURY,NC,27016,(336) 593-2831,GENERAL ACUTE CARE,STOKES,36.418068,-80.23107621,y,y,y,y,y,y
PROVIDENCE HOSPITAL OF NORTH HOUSTON LLC,16750 RED OAK DR,HOUSTON,TX,77090,(281) 453-7110,GENERAL ACUTE CARE,HARRIS,30.0142879,-95.44068702,y,y,y,y,y,y
MCCALLEN MEDICAL CENTER,301 WEST EXPRESSWAY 83,MCALLEN,TX,78503,(956) 632-4000,GENERAL ACUTE CARE,HIDALGO,26.18699237,-98.22573011,y,y,y,y,y,y
PRAIRIE SAINT JOHN'S,510 4TH STREET SOUTH,FARGO,ND,58103,(701) 476-7200,PSYCHIATRIC,CASS,46.86919521,-96.78500526,y,n,n,n,n,y
FAITH COMMUNITY HOSPITAL,215 CHISHOLM TRAIL,JACKSBORO,TX,76458,(940) 567-6633,GENERAL ACUTE CARE,JACK,33.23066769,-98.16693865,y,y,y,y,y,y
COVENANT MEDICAL CENTER - LAKESIDE,4000 24TH STREET,LUBBOCK,TX,79410,(806) 725-0536,GENERAL ACUTE CARE,LUBBOCK,33.57339136,-101.9019483,y,y,y,y,y,y
WOODLANDS SPECIALTY HOSPITAL PLLC,25440 I 45 NORTH,THE WOODLANDS,TX,77386,(281) 602-8160,GENERAL ACUTE CARE,MONTGOMERY,30.13090069,-95.44302258,y,y,y,y,y,y
CHRISTUS SPOHN HOSPITAL CORPUS CHRISTI SHORELINE,600 ELIZABETH STREET,CORPUS CHRISTI,TX,78404,(361) 902-4690,GENERAL ACUTE CARE,NUECES,27.77809368,-97.39474791,y,y,y,y,y,y
THE CORPUS CHRISTI MEDICAL CENTER - NORTHWEST,13725 NORTHWEST BLVD,CORPUS CHRISTI,TX,78410,(361) 767-4300,GENERAL ACUTE CARE,NUECES,27.85491733,-97.63542317,y,y,y,y,y,y
REAGAN MEMORIAL HOSPITAL,1300 N MAIN AVE,BIG LAKE,TX,76932,(325) 884-2561,GENERAL ACUTE CARE,REAGAN,31.20401254,-101.4610176,y,y,y,y,y,y
BAYLOR EMERGENCY MEDICAL CENTER,1975 ALPHASUITE 100,ROCKWALL,TX,75087,(214) 294-6200,GENERAL ACUTE CARE,ROCKWALL,32.9140952,-96.44469769,y,y,y,y,y,y
BAYLOR EMERGENCY MEDICAL CENTER,620 SOUTH MAINSUITE 100,KELLER,TX,76248,(214) 294-6100,GENERAL ACUTE CARE,TARRANT,32.92816374,-97.2547307,y,y,y,y,y,y
BAYLOR EMERGENCY MEDICAL CENTER,12500 SOUTH FREEWAYSUITE 100,BURLESON,TX,76028,(214) 294-6250,GENERAL ACUTE CARE,TARRANT,32.57542408,-97.32118572,y,y,y,y,y,y
BAYLOR EMERGENCY MEDICAL CENTER,1776 NORTH US 287SUITE 100,MANSFIELD,TX,76063,(214) 294-6300,GENERAL ACUTE CARE,TARRANT,32.59672241,-97.14487705,y,y,y,y,y,y
TRINITY HOSPITAL - SAINT JOSEPHS,407 3RD STREET SOUTHEAST,MINOT,ND,58701,(701) 857-5000,GENERAL ACUTE CARE,WARD,48.23216459,-101.2872043,y,y,y,y,y,y
BAYLOR EMERGENCY MEDICAL CENTER,5500 COLLEYVILLE BOULEVARD,COLLEYVILLE,TX,76034,(214) 294-6350,GENERAL ACUTE CARE,TARRANT,32.88879527,-97.1511153,y,y,y,y,y,y
MEDICAL CENTER OF ALLIANCE,3101 NORTH TARRANT PARKWAY,FORT WORTH,TX,76177,(817) 639-1100,GENERAL ACUTE CARE,TARRANT,32.90029252,-97.31392872,y,y,y,y,y,y
TEXAS HEALTH HOSPITAL CLEARFORK,5400 CLEARFORK MAIN ST,FORT WORTH,TX,76109,(817) 433-7010,GENERAL ACUTE CARE,TARRANT,32.70806442,-97.40231314,y,y,y,y,y,y
SHANNON MEDICAL CENTER ST JOHNS CAMPUS,2018 PULLIAM STREET,SAN ANGELO,TX,76905,(325) 653-6741,GENERAL ACUTE CARE,TOM GREEN,31.4717117,-100.4024438,y,y,y,y,y,y
DETAR NORTH,101 MEDICAL DRIVE,VICTORIA,TX,77904,(361) 573-6100,GENERAL ACUTE CARE,VICTORIA,28.85434036,-97.01968631,y,y,y,y,y,y
CENTRA LYNCHBURG GENERAL HOSPITAL,1901 TATE SPRINGS ROAD,LYNCHBURG,VA,24501,(434) 200-3000,GENERAL ACUTE CARE,LYNCHBURG,37.41701527,-79.17157799,y,y,y,y,y,y
SHELTERING ARMS REHABILITATION HOSPITAL,8254 ATLEE ROAD,MECHANICSVILLE,VA,23116,(804) 342-4320,REHABILITATION,HANOVER,37.62767133,-77.38713225,y,y,n,n,n,y
WINCHESTER REHABILITATION CENTER,333 WEST CORK STREET,WINCHESTER,VA,22601,(540) 536-5114,REHABILITATION,WINCHESTER,39.18315586,-78.17239498,y,y,n,n,n,y
SENTARA RMH MEDICAL CENTER,2010 HEALTH CAMPUS DRIVE,HARRISONBURG,VA,22801,(540) 689-1000,GENERAL ACUTE CARE,ROCKINGHAM,38.40478676,-78.85547297,y,y,y,y,y,y
JOHNSTON MEMORIAL HOSPITAL,16000 JOHNSTON MEMORIAL DRIVE,ABINGDON,VA,24211,(276) 258-1000,GENERAL ACUTE CARE,WASHINGTON,36.72291339,-81.91212146,y,y,y,y,y,y
VALLEY HEALTH SHENANDOAH MEMORIAL HOSPITAL,759 SOUTH MAIN STREET,WOODSTOCK,VA,22664,(540) 459-1100,CRITICAL ACCESS,SHENANDOAH,38.8702953,-78.51268401,y,y,y,y,y,y
NAVOS,2600 SW HOLDEN STREET,SEATTLE,WA,98168,(206) 933-7000,PSYCHIATRIC,KING,47.53407121,-122.3661718,y,n,n,n,n,y
WISE REGIONAL HEALTH SYSTEM,609 MEDICAL CENTER DR,DECATUR,TX,76234,(940) 627-5921,GENERAL ACUTE CARE,WISE,33.21710703,-97.5937157,y,y,y,y,y,y
NORFOLK REGIONAL CENTER,1700 NORTH VICTORY RD,NORFOLK,NE,68701,(402) 370-3400,PSYCHIATRIC,MADISON,42.05069795,-97.38426911,y,n,n,n,n,y
CHI HEALTH ST MARY'S,1301 GRUNDMAN BLVD,NEBRASKA CITY,NE,68410,(402) 873-3321,CRITICAL ACCESS,OTOE,40.6799737,-95.86239282,y,y,y,y,y,y
FAITH REGIONAL HEALTH SERVICES,2700 WEST NORFOLK AVE,NORFOLK,NE,68701,(402) 371-4880,GENERAL ACUTE CARE,MADISON,42.03389283,-97.45268418,y,y,y,y,y,y
FAITH REGIONAL HEALTH SERVICES EAST CAMPUS,1500 KOENIGSTEIN AVE,NORFOLK,NE,68701,(402) 371-4880,GENERAL ACUTE CARE,MADISON,42.03435234,-97.43103267,y,y,y,y,y,y
GREAT PLAINS REGIONAL MEDICAL CENTER,601 WEST LEOTA ST,NORTH PLATTE,NE,69101,(308) 696-8000,GENERAL ACUTE CARE,LINCOLN,41.12173395,-100.7699743,y,y,y,y,y,y
ST JOSEPH'S HOSPITAL AND HEALTH CENTER,2500 FAIRWAY STREET,DICKINSON,ND,58601,(701) 456-4000,CRITICAL ACCESS,STARK,46.88907589,-102.8205504,y,y,y,y,y,y
ST. LUKE'S REHABILITATION,600 N. ROBBINS ROAD,BOISE,ID,83702,(208) 489-4444,REHABILITATION,ADA,43.61558765,-116.1915765,y,y,n,n,n,y
ST. LUKE'S MERIDIAN MEDICAL CENTER,520 S. EAGLE ROAD,MERIDIAN,ID,83642,(208) 706-5000,SPECIAL,ADA,43.59969652,-116.3526083,y,y,y,y,y,y
ST. LUKE'S REGIONAL MEDICAL CENTER,190 EAST BANNOCK STREET,BOISE,ID,83712,(208) 381-2222,GENERAL ACUTE CARE,ADA,43.61256538,-116.1924492,y,y,y,y,y,y
VIBRA HOSPITAL OF BOISE,2131 SOUTH BONITO WAY,MERIDIAN,ID,83642,(208) 489-9500,GENERAL ACUTE CARE,ADA,43.58594689,-116.3586157,y,y,y,y,y,y
CAROLINAS HEALTHCARE SYSTEM UNION,600 HOSPITAL DRIVE,MONROE,NC,28111,(704) 283-3100,GENERAL ACUTE CARE,UNION,34.97570679,-80.52284241,y,y,y,y,y,y
WAKEMED NORTH,10000 FALLS OF NEUSE ROAD,RALEIGH,NC,27614,(919) 350-1300,GENERAL ACUTE CARE,WAKE,35.90908232,-78.59783739,y,y,y,y,y,y
VIBRA HOSPITAL OF FORT WAYNE,2200 RANDALLIA DRIVE5TH FLOOR,FORT WAYNE,IN,46805,(260) 399-2900,LONG TERM CARE,ALLEN,41.09617146,-85.11021903,n,n,n,n,n,y
ALTRU SPECIALTY HOSPITAL,4500 S WASHINGTON ST,GRAND FORKS,ND,58201,(701) 780-1500,GENERAL ACUTE CARE,GRAND FORKS,47.87696081,-97.04744399,y,y,y,y,y,y
PEMBINA COUNTY MEMORIAL HOSPITAL,301 MOUNTAIN ST E,CAVALIER,ND,58220,(701) 265-8461,CRITICAL ACCESS,PEMBINA,48.7925461,-97.61871696,y,y,y,y,y,y
SANFORD MEDICAL CENTER FARGO,5225 23RD AVE S,FARGO,ND,58103,(701) 234-6919,GENERAL ACUTE CARE,CASS,46.8452189,-96.87577895,y,y,y,y,y,y
LOGANSPORT STATE HOSPITAL,1098 S SR 25,LOGANSPORT,IN,46947,(574) 722-4141,PSYCHIATRIC,CASS,40.74169664,-86.40061387,y,n,n,n,n,y
SANFORD TRANSPLANT CENTER,736 BROADWAY,FARGO,ND,58122,(701) 234-2411,GENERAL ACUTE CARE,CASS,46.884298,-96.788422,y,y,y,y,y,y
COMMUNITY HOSPITAL ONAGA LTCU,206 GRAND AVE,ST MARYS,KS,66536,NOT AVAILABLE,LONG TERM CARE,POTTAWATOMIE,39.18859027,-96.06110542,n,n,n,n,n,y
ALLEN COUNTY REGIONAL HOSPITAL,3066 NORTH KENTUCKY STREET,IOLA,KS,67701,NOT AVAILABLE,CRITICAL ACCESS,ALLEN,37.94879933,-95.39173385,y,y,y,y,y,y
ST. LUKE'S WOOD RIVER MEDICAL CENTER,100 HOSPITAL DRIVE,KETCHUM,ID,83340,(208) 727-8800,SPECIAL,BLAINE,43.64832025,-114.350021,y,y,y,y,y,y
NELL J. REDFIELD MEMORIAL HOSPITAL,150 NORTH 200 WEST,MALAD CITY,ID,83252,(208) 766-2231,GENERAL ACUTE CARE,ONEIDA,42.18941981,-112.2503325,y,y,y,y,y,y
COFFEY COUNTY HOSPITAL LTCU,128 S PEARSON AVE,WAVERLY,KS,66871,NOT AVAILABLE,LONG TERM CARE,COFFEY,38.38818202,-95.59962994,n,n,n,n,n,y
GRISELL MEMORIAL HOSPITAL LTCU,330 S VERMONT PO BOX 268,RANSOM,KS,67572,NOT AVAILABLE,LONG TERM CARE,NESS,38.63600977,-99.93124705,n,n,n,n,n,y
UNIVERSITY OF TEXAS MEDICAL BRANCH HOSPITAL,301 UNIVERSITY BOULEVARD,GALVESTON,TX,77550,NOT AVAILABLE,GENERAL ACUTE CARE,GALVESTON,29.31120096,-94.77715943,y,y,y,y,y,y
LAKE GRANBURY MEDICAL CENTER,1310 PALUXY ROAD,GREENVILLE,TX,76048,(817) 573-2273,GENERAL ACUTE CARE,HOOD,32.43248931,-97.8038485,y,y,y,y,y,y
LIMESTONE MEDICAL CENTER,701 MCCLINTIC DR.,HAMLIN,TX,76642,(254) 729-3281,CRITICAL ACCESS,LIMESTONE,31.53271119,-96.53121111,y,y,y,y,y,y
MARIAN CENTER,451 EAST BISHOP FEDERAL LANE,SALT LAKE CITY,UT,84115,(801) 487-7557,CRITICAL ACCESS,SALT LAKE,40.72827209,-111.8779698,y,y,y,y,y,y
CENTER FOR CHANGE,1790 NORTH STATE STREET,OREM,UT,84097,(801) 224-8255,PSYCHIATRIC,UTAH,40.32993455,-111.7084276,y,n,n,n,n,y
BLUE MOUNTAIN HOSPITAL,802 SOUTH 200 WEST,BLANDING,UT,84511,(435) 678-3993,CRITICAL ACCESS,SAN JUAN,37.61306643,-109.4824861,y,y,y,y,y,y
LDS HOSPITAL,324 8TH AVENUE,SALT LAKE CITY,UT,84143,(801) 408-1100,GENERAL ACUTE CARE,SALT LAKE,40.77822379,-111.8798219,y,y,y,y,y,y
CHEROKEE NATION W. W. HASTINGS HOSPITAL,100 SOUTH BLISS AVENUE,TAHLEQUAH,OK,74464,(918) 458-3100,CRITICAL ACCESS,CHEROKEE,35.91183147,-94.9505388,y,y,y,y,y,y
LAWTON HOSPITAL,1515 LAWRIE TATUM ROAD,LAWTON,OK,73507,(580) 354-5000,CRITICAL ACCESS,COMANCHE,34.62759832,-98.38424195,y,y,y,y,y,y
HOLLY HILL HOSPITAL,3019 FALSTAFF RD,RALEIGH,NC,27610,(919) 250-7000,PSYCHIATRIC,WAKE,35.78277375,-78.58392113,y,n,n,n,n,y
KIOWA DISTRICT HOSPITAL,1002 SOUTH 4TH STREET,KIOWA,KS,67070,NOT AVAILABLE,CRITICAL ACCESS,BARBER,37.00769961,-98.48857262,y,y,y,y,y,y
BARTLETT REGIONAL HOSPITAL,3260 HOSPITAL DRIVE,JUNEAU,AK,99801,(907) 796-8900,CRITICAL ACCESS,JUNEAU,58.32907951,-134.4651526,y,y,y,y,y,y
MEMORIAL HERMANN SOUTHWEST HOSPITAL,7600 BEECHNUT STREET,HOUSTON,TX,77074,(713) 456-5000,GENERAL ACUTE CARE,HARRIS,29.69271807,-95.52115311,y,y,y,y,y,y
MS BAND OF CHOCTAW HOSPITAL,210 HOSPITAL CIRCLE,CHOCTAW,MS,39350,(601) 656-2211,CRITICAL ACCESS,NESHOBA,32.7823732,-89.23075186,y,y,y,y,y,y
CHICKASAW NATION MEDICAL CENTER,1921 STONECIPHER BLVD.,ADA,OK,74820,(580) 436-3980,CRITICAL ACCESS,PONTOTOC,34.73116768,-96.64541977,y,y,y,y,y,y
ZUNI COMPREHENSIVE COMMUNITY HEALTH CENTER,ROUTE 301 NORTH “B” STREET,ZUNI,NM,87327,(505) 782-4431,CRITICAL ACCESS,MCKINLEY,35.08720767,-108.7911268,y,y,y,y,y,y
CYPRESS FAIRBANKS MEDICAL CENTER,10655 STEEPLETOP DRIVE,HOUSTON,TX,77065,(281) 949-3689,GENERAL ACUTE CARE,HARRIS,29.92712973,-95.58969896,y,y,y,y,y,y
CHOCTAW NATION INDIAN HOSPITAL (TALIHINA),ONE CHOCTAW WAY,TALIHINA,OK,74571,(918) 567-7000,CRITICAL ACCESS,LATIMER,34.75548842,-95.08413084,y,y,y,y,y,y
CLAREMORE HOSPITAL,101 S MOORE AVENUE (SOUTH MOORE & WILL ROGERS BLVD),CLAREMORE,OK,74017,(918) 342-6200,CRITICAL ACCESS,ROGERS,36.31610206,-95.6292859,y,y,y,y,y,y
ROSEBUD HOSPITAL,BIA ROUTE 1 SOLDER CREEK ROAD,ROSEBUD,SD,57570,(605) 747-2231,CRITICAL ACCESS,TODD,43.25674297,-100.8506097,y,y,y,y,y,y
PINE RIDGE HOSPITAL,HWY 18 EAST,PINE RIDGE,SD,57770,(605) 747-2231,CRITICAL ACCESS,SHANNON,43.02367851,-102.5412902,y,y,y,y,y,y
WINNEBAGO HOSPITAL,US HIGHWAY 77-75,WINNEBAGO,NE,68071,(402) 878-2231,CRITICAL ACCESS,THURSTON,42.2325136,-96.47063294,y,y,y,y,y,y
BLACKFEET COMMUNITY HOSPITAL,760 HOSPITAL CIRCLE,BROWNING,MT,59417,(406) 338-6230,CRITICAL ACCESS,GLACIER,48.5656912,-113.0197302,y,y,y,y,y,y
IRWIN ARMY COMMUNITY HOSPITAL,600 CAISSON HILL RD,FORT RILEY,KS,66442,NOT AVAILABLE,MILITARY,GEARY,39.07919232,-96.77244571,y,y,y,y,n,y
NAVAL HOSPITAL BEAUFORT,1 PINCKNEY BLVD,BEAUFORT,SC,29902,NOT AVAILABLE,MILITARY,BEAUFORT,32.3894647,-80.68227993,y,y,y,y,n,y
BASSETT ARMY COMMUNITY HOSPITAL,4076 NEELY RD,FORT WAINWRIGHT,AK,99703,(907) 361-5172,MILITARY,FAIRBANKS NORTH STAR,64.82970024,-147.6622292,y,y,y,y,n,y
NAVAL MEDICAL CENTER PORTSMOUTH,620 JOHN PAUL JONES CIRCLE,PORTSMOUTH,VA,23708,NOT AVAILABLE,MILITARY,PORTSMOUTH,36.84541393,-76.30576791,y,y,y,y,n,y
99TH MEDICAL GROUP - MIKE O'CALLAGHAN FEDERAL MEDICAL CENTER,4700 LAS VEGAS BLVD N,NELLIS AFB,NV,89191,NOT AVAILABLE,MILITARY,CLARK,36.24602701,-115.0492819,y,y,y,y,n,y
NAVAL HOSPITAL PENSACOLA,6000 WEST HIGHWAY 98,PENSACOLA,FL,32512,(850) 505-6601,MILITARY,ESCAMBIA,30.39856995,-87.29861569,y,y,y,y,n,y
88TH MEDICAL GROUP - WRIGHT-PATTERSON AIR FORCE BASE MEDICAL CENTER,4881 SUGAR MAPLE DR,WRIGHT PATTERSON AFB,OH,45433,NOT AVAILABLE,MILITARY,GREENE,39.80534785,-84.03740713,y,y,y,y,n,y
REYNOLDS ARMY COMMUNITY HOSPITAL,4301 WILSON ST,FORT SILL,OK,73503,NOT AVAILABLE,MILITARY,COMANCHE,34.6523867,-98.41460698,y,y,y,y,n,y
FORT BELVOIR COMMUNITY HOSPITAL,9300 DEWITT LOOP,FORT BELVOIR,VA,22060,NOT AVAILABLE,MILITARY,FAIRFAX,38.70560252,-77.14368028,y,y,y,y,n,y
MONCRIEF ARMY COMMUNITY HOSPITAL,4500 STUART ST,FORT JACKSON,SC,29206,NOT AVAILABLE,MILITARY,RICHLAND,34.01192613,-80.93778994,y,y,y,y,n,y
FORT LEONARD WOOD ARMY COMMUNITY HOSPITAL,126 MISSOURI AVE,FORT LEONARD WOOD,MO,65473,(573) 596-0035,MILITARY,PULASKI,37.76616456,-92.11483258,y,y,y,y,n,y
STRATEGIC BEHAVIORAL CENTER GARNER,3200 WATERFIELD ROAD,GARNER,NC,27529,(919) 800-4400,PSYCHIATRIC,WAKE,35.67803419,-78.56140828,y,n,n,n,n,y
KINDRED HOSPITAL - TARRANT COUNTY,1000 NORTH COOPER STREET,ARLINGTON,TX,76011,(817) 548-3400,LONG TERM CARE,TARRANT,32.75055987,-97.11406781,n,n,n,n,n,y
ALASKA VA HEALTHCARE SYSTEM,1201 N MULDOON RD,ANCHORAGE,AK,99504,(907) 257-4700,MILITARY,ANCHORAGE,61.23278802,-149.7445305,y,y,y,y,n,y
VA MEDICAL CENTER - NEWINGTON CAMPUS,555 WILLARD AVE,NEWINGTON,CT,6111,NOT AVAILABLE,MILITARY,HARTFORD,41.70168559,-72.74061649,y,y,y,y,n,y
JAMES A. HALEY VETERANS' HOSPITAL PRIMARY CARE ANNEX,13515 LAKE TERRACE LANE,TAMPA,FL,33637,(813) 998-8000,MILITARY,HILLSBOROUGH,28.07039609,-82.35733765,y,y,y,y,n,y
VA MEDICAL CENTER - FORT WAYNE CAMPUS,2121 LAKE AVE,FORT WAYNE,IN,46805,(260) 426-5431,MILITARY,ALLEN,41.09078646,-85.10951788,y,y,y,y,n,y
ROBERT J. DOLE VA MEDICAL CENTER,5500 E KELLOGG AVE,WICHITA,KS,67218,(316) 685-2221,MILITARY,SEDGWICK,37.6812338,-97.27464126,y,y,y,y,n,y
RICHARD L. ROUDEBUSH VA MEDICAL CENTER,1481 W 10TH ST,INDIANAPOLIS,IN,46202,NOT AVAILABLE,MILITARY,MARION,39.77846306,-86.18716442,y,y,y,y,n,y
VA MEDICAL CENTER - MARION IN,1700 E 38TH ST,MARION,IN,46953,(765) 674-3321,MILITARY,GRANT,40.5204615,-85.63826841,y,y,y,y,n,y
VA MEDICAL CENTER - BROCKTON DIVISION,940 BELMONT ST,BROCKTON,MA,2401,NOT AVAILABLE,MILITARY,PLYMOUTH,42.06302243,-71.05393559,y,y,y,y,n,y
VA CENTRAL WESTERN MASSACHUSETTS HEALTHCARE SYSTEM,421 N MAIN ST,NORTHAMPTON,MA,1062,NOT AVAILABLE,MILITARY,HAMPSHIRE,42.34953083,-72.68244039,y,y,y,y,n,y
VA MEDICAL CENTER - WEST ROXBURY DIVISION,1400 VFW PKY,WEST ROXBURY,MA,2132,NOT AVAILABLE,MILITARY,SUFFOLK,42.2746273,-71.17169802,y,y,y,y,n,y
CAPTAIN JAMES A. LOVELL FEDERAL HEALTH CARE CENTER,3001 GREEN BAY RD,NORTH CHICAGO,IL,60064,(847) 688-1900,MILITARY,LAKE,42.30704823,-87.86051071,y,y,y,y,n,y
UNC HOSPITALS AT WAKEBROOK,111 SUNNYBROOK ROAD,RALEIGH,NC,27610,NOT AVAILABLE,PSYCHIATRIC,WAKE,35.78289748,-78.58179865,y,n,n,n,n,y
COLMERY-O'NEIL VA MEDICAL CENTER,2200 SW GAGE BLVD,TOPEKA,KS,66622,(785) 350-3111,MILITARY,SHAWNEE,39.02623218,-95.72279545,y,y,y,y,n,y
DWIGHT D. EISENHOWER VA MEDICAL CENTER,4101 4TH ST TRAFFICWAY,LEAVENWORTH,KS,66048,(913) 682-2000,MILITARY,LEAVENWORTH,39.27939624,-94.89383569,y,y,y,y,n,y
SAINT JOSEPHS HOSPITAL AND MEDICAL CENTER,703 MAIN STREET,PATERSON,NJ,7503,(973) 754-2010,GENERAL ACUTE CARE,PASSAIC,40.90283445,-74.16570442,y,y,y,y,y,y
KINDRED HOSPITAL HOUSTON MEDICAL CENTER,6441 MAIN STREET,HOUSTON,TX,77030,(713) 790-0500,LONG TERM CARE,HARRIS,29.71285043,-95.39917023,n,n,n,n,n,y
LAMB HEALTHCARE CENTER,1500 SOUTH SUNSET AVENUE,LITTLEFIELD,TX,79339,(806) 385-6411,GENERAL ACUTE CARE,LAMB,33.91170687,-102.3442949,y,y,y,y,y,y
BAYSHORE MEDICAL CENTER,727 NORTH BEERS STREET,HOLMDEL,NJ,7733,(732) 739-5900,GENERAL ACUTE CARE,MONMOUTH,40.40516141,-74.19168432,y,y,y,y,y,y
VA MEDICAL CENTER - KANSAS CITY,4801 LINWOOD BLVD,KANSAS CITY,MO,64128,(816) 861-4700,MILITARY,JACKSON,39.0640641,-94.5264144,y,y,y,y,n,y
VA MEDICAL CENTER - MANCHESTER,718 SMYTH RD,MANCHESTER,NH,3104,NOT AVAILABLE,MILITARY,HILLSBOROUGH,43.01235803,-71.44086704,y,y,y,y,n,y
RAYMOND G. MURPHY VA MEDICAL CENTER,1501 SAN PEDRO SE,ALBUQUERQUE,NM,87108,NOT AVAILABLE,MILITARY,BERNALILLO,35.05516799,-106.5817674,y,y,y,y,n,y
VA MEDICAL CENTER - LYONS CAMPUS,151 KNOLLCROFT RD,LYONS,NJ,7939,(908) 647-0180,MILITARY,SOMERSET,40.66859853,-74.5575506,y,y,y,y,n,y
VA MEDICAL CENTER - OMAHA,4101 WOOLWORTH AVE,OMAHA,NE,68105,(800) 451-5796,MILITARY,DOUGLAS,41.24253129,-95.9743765,y,y,y,y,n,y
HUDSON REGIONAL HOSPITAL,55 MEADOWLANDS PARKWAY,SECAUCUS,NJ,7094,(201) 392-3100,GENERAL ACUTE CARE,HUDSON,40.79183031,-74.07323651,y,y,y,y,y,y
ALEDA E. LUTZ VA MEDICAL CENTER,1500 WEISS ST,SAGINAW,MI,48602,(989) 497-2500,MILITARY,SAGINAW,43.44479571,-83.96202358,y,y,y,y,n,y
G.V. (SONNY) MONTGOMERY VA MEDICAL CENTER,1500 E WOODROW WILSON DR,JACKSON,MS,39216,(601) 362-4471,MILITARY,HINDS,32.32789016,-90.16732631,y,y,y,y,n,y
JOHN BROOKS RECOVERY CENTER - RESIDENT DRUG TREATMENT (WOMEN),20 SOUTH TENNESSEE AVENUE,ATLANTIC CITY,NJ,8401,(609) 345-2433,SPECIAL,ATLANTIC,39.36130275,-74.42779704,y,y,y,y,y,y
VA MEDICAL CENTER - FORT MEADE CAMPUS,113 COMANCHE RD,FORT MEADE,SD,57741,NOT AVAILABLE,MILITARY,MEADE,44.41267726,-103.4718151,y,y,y,y,n,y
VA CARIBBEAN HEALTHCARE SYSTEM,10 CASIA ST,SAN JUAN,PR,921,NOT AVAILABLE,MILITARY,SAN JUAN,18.39039414,-66.07933548,y,y,y,y,n,y
VA MEDICAL CENTER - WHITE RIVER JUNCTION,163 VETERANS DR,WHITE RIVER JUNCTION,VT,5009,NOT AVAILABLE,MILITARY,WINDSOR,43.64849322,-72.34253657,y,y,y,y,n,y
CHALMERS P. WYLIE VA AMBULATORY CARE CENTER,420 N JAMES RD,COLUMBUS,OH,43219,(614) 257-5200,MILITARY,FRANKLIN,39.9808247,-82.90958494,y,y,y,y,n,y
GULF COAST VETERANS HEALTH CARE SYSTEM,400 VETERANS AVE,BILOXI,MS,39531,(228) 523-5000,MILITARY,HARRISON,30.41511432,-88.94195402,y,y,y,y,n,y
VA MEDICAL CENTER AND AMBULATORY CARE CLINIC,3687 VETERANS DR,FORT HARRISON,MT,59636,(877) 468-8387,MILITARY,LEWIS AND CLARK,46.61866261,-112.1017865,y,y,y,y,n,y
MAYO CLINIC HOSPITAL METHODIST CAMPUS,201 WEST CENTER ST,ROCHESTER,MN,55902,(507) 284-2511,GENERAL ACUTE CARE,OLMSTED,44.02395962,-92.46583322,y,y,y,y,y,y
ESSENTIA HEALTH VIRGINIA,901 9TH ST N,VIRGINIA,MN,55792,(218) 741-3340,GENERAL ACUTE CARE,ST. LOUIS,47.53186339,-92.5485476,y,y,y,y,y,y
SHAWNEE MISSION PRAIRIE STAR,23401 PRAIRIE STAR PKWY,LENEXA,KS,66227,(913) 676-8630,GENERAL ACUTE CARE,JOHNSON,38.95564679,-94.85686876,y,y,y,y,y,y
EDWARD PLAINFIELD,24600 W 127TH ST,PLAINFIELD,IL,60585,(630) 527-3000,GENERAL ACUTE CARE,WILL,41.65282059,-88.21737981,y,y,y,y,y,y
BEATRICE COMMUNITY HOSPITAL,4800 HOSPITAL PKWY,BEATRICE,NE,68310,(402) 228-3344,CRITICAL ACCESS,GAGE,40.31614637,-96.74972061,y,y,y,y,y,y
VIA CHRISTI HOSPITAL ST. JOSEPH,3600 E HARRY ST,WICHITA,KS,67218,(316) 685-1111,GENERAL ACUTE CARE,SEDGWICK,37.66615812,-97.29259655,y,y,y,y,y,y
ST. ROSE DOMINICAN HOSPITALS - SAN MARTIN CAMPUS,8280 WEST WARM SPRINGS ROAD,LAS VEGAS,NV,89113,(702) 492-8509,GENERAL ACUTE CARE,CLARK,36.05733944,-115.27202,y,y,y,y,y,y
HUNTER HOLMES MCGUIRE VA MEDICAL CENTER,1201 BROAD ROCK BLVD,RICHMOND,VA,23225,(804) 675-5000,MILITARY,RICHMOND CITY,37.49807429,-77.46768488,y,y,y,y,n,y
VA MEDICAL CENTER - CHEYENNE,2360 E PERSHING BLVD,CHEYENNE,WY,82001,(307) 778-7550,MILITARY,LARAMIE,41.14828213,-104.7855322,y,y,y,y,n,y
GEORGE E. WAHLEN DEPARTMENT OF VETERANS AFFAIRS MEDICAL CENTER,500 FOOTHILL DR,SALT LAKE CITY,UT,84148,(801) 582-1565,MILITARY,SALT LAKE,40.75739725,-111.840554,y,y,y,y,n,y
VA MEDICAL CENTER - VANCOUVER CAMPUS,1601 E 4TH PLAIN BLVD,VANCOUVER,WA,98661,(360) 696-4061,MILITARY,CLARK,45.63663819,-122.6572493,y,y,y,y,n,y
PARSONS STATE HOSPITAL,2601 GABRIEL AVENUE,PARSONS,KS,67357,(620) 820-5271,GENERAL ACUTE CARE,LABETTE,37.35126304,-95.28054226,y,y,y,y,y,y
CINCINNATI CHILDREN'S LIBERTY,7777 YANKEE RD,MIDDLETOWN,OH,45044,(513) 636-4200,CHILDREN,BUTLER,39.37657725,-84.36794409,y,y,y,y,y,n
SAINT FRANCIS HOSPITAL MEMPHIS,5959 PARK AVE,MEMPHIS,TN,38119,(901) 765-1000,GENERAL ACUTE CARE,SHELBY,35.09820503,-89.86487519,y,y,y,y,y,y
MERIT HEALTH MADISON,161 RIVER OAKS DR,CANTON,MS,39046,(601) 855-4000,GENERAL ACUTE CARE,MADISON,32.58137191,-90.08319563,y,y,y,y,y,y
OU MEDICAL CENTER EDMOND-ER,1 S BRYANT AVE,EDMOND,OK,73034,(405) 359-5561,GENERAL ACUTE CARE,OKLAHOMA,35.65465832,-97.4615103,y,y,y,y,y,y
NORMAN REGIONAL HEALTHPLEX,3300 HEALTHPLEX PKWY,NORMAN,OK,73072,(405) 515-1000,GENERAL ACUTE CARE,CLEVELAND,35.25959361,-97.48953346,y,y,y,y,y,y
PLUM CREEK SPECIALTY HOSPITAL,5601 PLUM CREEK DRIVE,AMARILLO,TX,79124,(806) 351-1000,LONG TERM CARE,POTTER,35.218499,-101.9022048,n,n,n,n,n,y
IU HEALTH UNIVERSITY HOSPITAL,550 UNIVERSITY BLVD,INDIANAPOLIS,IN,46202,(317) 274-5000,GENERAL ACUTE CARE,MARION,39.77528333,-86.17656162,y,y,y,y,y,y
RILEY HOSPITAL FOR CHILDREN,705 RILEY HOSPITAL DR,INDIANAPOLIS,IN,46202,(317) 944-5000,CHILDREN,MARION,39.77710774,-86.18027646,y,y,y,y,y,n
MT CARMEL EAST HOSPITAL,6001 E BROAD ST,COLUMBUS,OH,43213,(614) 234-6000,GENERAL ACUTE CARE,FRANKLIN,39.97691933,-82.84330783,y,y,y,y,y,y
SOUTHVIEW HOSPITAL,1997 MIAMISBURG CENTERVILLE RD,DAYTON,OH,45459,(937) 439-6000,GENERAL ACUTE CARE,MONTGOMERY,39.63539661,-84.20342017,y,y,y,y,y,y
TRINITY MEDICAL CENTER WEST-ER,4000 JOHNSON RD,STEUBENVILLE,OH,43952,(740) 264-8360,GENERAL ACUTE CARE,JEFFERSON,40.36777411,-80.6590339,y,y,y,y,y,y
AKRON CHILDREN'S HOSP BEEGHLY,6505 MARKET ST,BOARDMAN,OH,44512,(330) 543-8290,CHILDREN,MAHONING,41.03255484,-80.66048104,y,y,y,y,y,n
VIBRA HOSPITAL OF AMARILLO,7501 WALLACE BLVD,AMARILLO,TX,79106,(806) 468-2900,LONG TERM CARE,POTTER,35.194149,-101.9266926,n,n,n,n,n,y
BETHESDA ARROW SPRINGS-ER,100 ARROW SPRINGS BLVD,LEBANON,OH,45036,(513) 282-7000,GENERAL ACUTE CARE,WARREN,39.39522296,-84.20942755,y,y,y,y,y,y
METHODIST HOSPITAL-SOUTHLAKE,8701 BROADWAY,MERRILLVILLE,IN,46410,(219) 738-5500,GENERAL ACUTE CARE,LAKE,41.45837283,-87.3329309,y,y,y,y,y,y
WARD MEMORIAL HOSPITAL,406 SOUTH GARY STREET,MONAHANS,TX,79756,(432) 943-2511,CRITICAL ACCESS,WARD,31.59378429,-102.8831868,y,y,y,y,y,y
CONTINUECARE HOSPITAL AT HENDRICK MEDICAL CENTER,1900 PINE7TH FLOOR,ABILENE,TX,79601,(325) 670-5151,LONG TERM CARE,TAYLOR,32.47234716,-99.73327938,n,n,n,n,n,y
TEXAS NEUROREHAB CENTER,1106 WEST DITTMAR ROADBUILDING 9,AUSTIN,TX,78745,(512) 444-4835,LONG TERM CARE,TRAVIS,30.18930118,-97.80737637,n,n,n,n,n,y
CORNERSTONE HOSPITAL OF AUSTIN,4207 BURNET ROAD,AUSTIN,TX,78756,(512) 706-1900,LONG TERM CARE,TRAVIS,30.31182625,-97.7432915,n,n,n,n,n,y
CHRISTUS DUBUIS HOSPITAL OF BEAUMONT,2830 CALDER AVENUE4TH FLOOR,BEAUMONT,TX,77702,(409) 899-7680,LONG TERM CARE,JEFFERSON,30.08725677,-94.13292786,n,n,n,n,n,y
CHRISTUS DUBUIS HOSPITAL OF BEAUMONT SOUTH,860 SOUTH 8TH STREET,BEAUMONT,TX,77701,(409) 236-8700,LONG TERM CARE,JEFFERSON,30.06953533,-94.12531493,n,n,n,n,n,y
SELECT SPECIALTY HOSPITAL - DALLAS,2329 PARKER ROAD,CARROLLTON,TX,75010,(469) 892-1400,LONG TERM CARE,DALLAS,33.04566135,-96.86485975,n,n,n,n,n,y
OVERLOOK MEDICAL CENTER,1000 GALLOPING HILL RD,UNION,NJ,7083,(908) 522-6300,GENERAL ACUTE CARE,UNION,40.67481574,-74.26565452,y,y,y,y,y,y
KINDRED HOSPITAL EAST HOUSTON,15101 EAST FREEWAY,CHANNELVIEW,TX,77530,NOT AVAILABLE,LONG TERM CARE,HARRIS,29.77455376,-95.14465578,n,n,n,n,n,y
CORNERSTONE HOSPITAL CONROE,1500 GRAND LAKE DRIVE,CONROE,TX,76208,(936) 523-1800,LONG TERM CARE,MONTGOMERY,30.28203591,-95.46559063,n,n,n,n,n,y
ATRIUM MEDICAL CENTER AT CORINTH,3305 CORINTH PARKWAY,CORINTH,TX,78465,NOT AVAILABLE,LONG TERM CARE,DENTON,33.15366153,-97.05667447,n,n,n,n,n,y
SAINT ALPHONSUS EAGLE HEALTH PLZ-ER,323 E RIVERSIDE DR,EAGLE,ID,83616,(208) 367-5355,GENERAL ACUTE CARE,ADA,43.6889546,-116.3506934,y,y,y,y,y,y
OLYMPIC MEDICAL CENTER,939 CAROLINE ST,PORT ANGELES,WA,98362,(360) 417-7000,GENERAL ACUTE CARE,CLALLAM,48.08955335,-123.1111959,y,y,y,y,y,y
EAST TEXAS MEDICAL CENTER - QUITMAN,117 WINNSBORO STREET,QUITMAN,TX,75783,(903) 763-6330,CRITICAL ACCESS,WOOD,32.79706946,-95.44291819,y,y,y,y,y,y
HARDEMAN COUNTY MEMORIAL HOSPITAL,402 MERCER STREET,QUANAH,TX,79252,(940) 663-2795,CRITICAL ACCESS,HARDEMAN,34.29619436,-99.74154846,y,y,y,y,y,y
ROUND ROCK MEDICAL CENTER,2400 ROUND ROCK AVENUE,ROUND ROCK,TX,78681,(512) 341-1000,GENERAL ACUTE CARE,WILLIAMSON,30.51110777,-97.7136084,y,y,y,y,y,y
TEXAS HEALTH PRESBYTERIAN HOSPITAL ROCKWALL,3150 HORIZON ROAD,ROCKWALL,TX,75032,(469) 698-1000,GENERAL ACUTE CARE,ROCKWALL,32.8842895,-96.46622551,y,y,y,y,y,y
PAM SPECIALTY HOSPITAL OF CORPUS CHRISTI NORTH,600 ELIZABETH STREETTHIRD FLOOR,CORPUS CHRISTI,TX,78413,(361) 881-3223,LONG TERM CARE,NUECES,27.77782005,-97.39474791,n,n,n,n,n,y
TEXAS CENTER FOR INFECTIOUS DISEASE,2303 SOUTHEAST MILITARY DRIVE,SAN ANTONIO,TX,78223,NOT AVAILABLE,GENERAL ACUTE CARE,BEXAR,29.35410452,-98.4567103,y,y,y,y,y,y
BAYLOR SPECIALTY HOSPITAL,3504 SWISS AVENUE,DALLAS,TX,75204,NOT AVAILABLE,LONG TERM CARE,DALLAS,32.79182316,-96.78160751,n,n,n,n,n,y
LIFECARE HOSPITALS OF DALLAS,1950 RECORD CROSSING ROAD,DALLAS,TX,75235,(214) 640-9673,LONG TERM CARE,DALLAS,32.81724044,-96.84885029,n,n,n,n,n,y
KINDRED HOSPITAL DALLAS CENTRAL,8050 MEADOW ROADFIRST FLOOR,DALLAS,TX,75231,(469) 232-6500,LONG TERM CARE,DALLAS,32.8868949,-96.76738833,n,n,n,n,n,y
INTEGRITY TRANSITIONAL HOSPITAL,2813 SOUTH MAYHILL ROAD,DENTON,TX,76208,(940) 320-2300,LONG TERM CARE,DENTON,33.17439097,-97.08712045,n,n,n,n,n,y
MESA HILL SPECIALTY HOSPITAL,2311 NORTH OREGON STREET,EL PASO,TX,79902,(915) 545-1823,LONG TERM CARE,EL PASO,31.77347373,-106.5022513,n,n,n,n,n,y
MEMORIAL HOSPITAL,209 NORTHWEST 8TH STREET,SEMINOLE,TX,79360,(432) 758-5811,CRITICAL ACCESS,GAINES,32.72162797,-102.6548789,y,y,y,y,y,y
SHAMROCK GENERAL HOSPITAL,1000 SOUTH MAIN STREET,SHAMROCK,TX,79079,(806) 256-2114,CRITICAL ACCESS,WHEELER,35.1989674,-100.2481194,y,y,y,y,y,y
KINDRED HOSPITAL EL PASO,1740 CURIE DRIVE,EL PASO,TX,79902,(915) 351-9044,LONG TERM CARE,EL PASO,31.77862724,-106.4772989,n,n,n,n,n,y
EL PASO LTAC HOSPITAL,1221 NORTH COTTONTHIRD FLOOR,EL PASO,TX,79902,(915) 546-5822,LONG TERM CARE,EL PASO,31.78368543,-106.4743254,n,n,n,n,n,y
LIFECARE HOSPITALS OF FORT WORTH,6201 OVERTON RIDGE BOULEVARD,FORT WORTH,TX,76132,(817) 370-6078,LONG TERM CARE,TARRANT,32.67905415,-97.42120446,n,n,n,n,n,y
TEXAS HEALTH SPECIALTY HOSPITAL FORT WORTH,1301 PENNSYLVANIA AVENUE4TH FLOOR,FORT WORTH,TX,76104,(817) 250-5500,LONG TERM CARE,TARRANT,32.73670911,-97.33988601,n,n,n,n,n,y
KINDRED HOSPITAL - TARRANT COUNTY - FORT WORTH SOUTHWEST,7800 OAKMONT BOULEVARD,FORT WORTH,TX,76132,(817) 346-0094,LONG TERM CARE,TARRANT,32.665697,-97.42370538,n,n,n,n,n,y
KINDRED HOSPITAL - FORT WORTH,815 EIGHTH AVENUE,FORT WORTH,TX,76104,(817) 332-4812,LONG TERM CARE,TARRANT,32.73577378,-97.34335383,n,n,n,n,n,y
REGENCY HOSPITAL OF FORT WORTH,6801 OAKMONT BOULEVARD,FORT WORTH,TX,76132,NOT AVAILABLE,LONG TERM CARE,TARRANT,32.66203254,-97.41423269,n,n,n,n,n,y
HANSFORD COUNTY HOSPITAL,707 SOUTH ROLAND STREET,SPEARMAN,TX,79081,(806) 659-2535,GENERAL ACUTE CARE,HANSFORD,36.19027677,-101.1996141,y,y,y,y,y,y
BAYLOR SCOTT & WHITE SURGICAL HOSPITAL AT SHERMAN,3601 NORTH CALAIS STREET,SHERMAN,TX,75090,(903) 813-9999,GENERAL ACUTE CARE,GRAYSON,33.67663535,-96.60185221,y,y,y,y,y,y
BAYLOR SCOTT & WHITE HOSPITAL - TAYLOR,305 MALLARD LANE,TAYLOR,TX,76574,(512) 352-7611,CRITICAL ACCESS,WILLIAMSON,30.59094376,-97.41538166,y,y,y,y,y,y
CHRISTUS MOTHER FRANCES HOSPITAL - SULPHUR SPRINGS,115 AIRPORT ROAD,SULPHUR SPRINGS,TX,75483,(903) 439-4052,GENERAL ACUTE CARE,HOPKINS,33.15762802,-95.60014471,y,y,y,y,y,y
ROLLING PLAINS MEMORIAL HOSPITAL,200 EAST ARIZONA AVENUE,SWEETWATER,TX,79556,(325) 235-1701,GENERAL ACUTE CARE,NOLAN,32.45321238,-100.3973167,y,y,y,y,y,y
SOLARA HOSPITAL HARLINGEN,508 VICTORIA LANE,HARLINGEN,TX,78550,(956) 425-9600,LONG TERM CARE,CAMERON,26.15982657,-97.67274526,n,n,n,n,n,y
UNIVERSITY OF TEXAS HEALTH CENTER - TYLER,11937 HIGHWAY 271 NORTH,TYLER,TX,75708,NOT AVAILABLE,GENERAL ACUTE CARE,SMITH,32.42595009,-95.21342841,y,y,y,y,y,y
KINDRED HOSPITAL HOUSTON NORTHWEST,11297 FALLBROOK DRIVE,HOUSTON,TX,77065,(281) 517-1000,LONG TERM CARE,HARRIS,29.92440962,-95.58824613,n,n,n,n,n,y
PINE VALLEY SPECIALTY HOSPITAL,6160 SOUTH LOOP EAST,HOUSTON,TX,77087,(713) 640-2400,LONG TERM CARE,HARRIS,29.69473891,-95.31759658,n,n,n,n,n,y
PLAZA SPECIALTY HOSPITAL,1300 BINZ STREET,HOUSTON,TX,77004,(713) 285-1000,LONG TERM CARE,HARRIS,29.72323923,-95.38702269,n,n,n,n,n,y
ICON HOSPITAL,19211 MCKAY DRIVE,HUMBLE,TX,77338,(281) 883-5500,LONG TERM CARE,HARRIS,29.99867547,-95.27622266,n,n,n,n,n,y
HOUSTON METHODIST ST. CATHERINE HOSPITAL,701 SOUTH FRY,KATY,TX,77450,(281) 599-5700,LONG TERM CARE,HARRIS,29.77679705,-95.71684416,n,n,n,n,n,y
HILLCREST BAPTIST MEDICAL CENTER,3000 HERRING AVENUE,WACO,TX,76708,NOT AVAILABLE,GENERAL ACUTE CARE,MCLENNAN,31.55876112,-97.17473376,y,y,y,y,y,y
LAREDO SPECIALTY HOSPITAL,2005 BUSTAMANTE STREET,LAREDO,TX,78041,(956) 753-5353,LONG TERM CARE,WEBB,27.53352938,-99.47363697,n,n,n,n,n,y
COVENANT SPECIALTY HOSPITAL,3815 20TH STREET,LUBBOCK,TX,79410,(806) 725-9200,LONG TERM CARE,LUBBOCK,33.5766576,-101.8970615,n,n,n,n,n,y
CHI ST LUKES HEALTH MEMORIAL SPECIALTY HOSPITAL,1201 WEST FRANK AVENUESUITE 5D,LUFKIN,TX,75904,(936) 639-7975,LONG TERM CARE,ANGELINA,31.33628998,-94.74084706,n,n,n,n,n,y
PAM SPECIALTY HOSPITAL OF LULING,200 MEMORIAL DRIVE,LULING,TX,78648,(830) 875-8400,LONG TERM CARE,CALDWELL,29.67408592,-97.6550844,n,n,n,n,n,y
KINDRED HOSPITAL - MANSFIELD,1802 HIGHWAY 157 NORTH,MANSFIELD,TX,76063,(817) 473-6101,LONG TERM CARE,TARRANT,32.59903863,-97.14435357,n,n,n,n,n,y
SOLARA HOSPITAL MCALLEN,301 WEST EXPRESSWAY 838TH FLOOR,MCALLEN,TX,78503,(956) 632-4880,LONG TERM CARE,HIDALGO,26.18672847,-98.22582022,n,n,n,n,n,y
MESQUITE SPECIALTY HOSPITAL,1024 NORTH GALLOWAY AVENUE,MESQUITE,TX,75149,(972) 216-2300,LONG TERM CARE,DALLAS,32.77813391,-96.5986591,n,n,n,n,n,y
UNITED REGIONAL HEALTH CARE SYSTEM,1600 11TH STREET,WICHITA FALLS,TX,76301,(940) 764-7000,GENERAL ACUTE CARE,WICHITA,33.90243058,-98.50198079,y,y,y,y,y,y
ALLEGIANCE HEALTH CENTER PERMIAN BASIN,207 TRADEWINDS BOULEVARD,MIDLAND,TX,79706,(432) 699-3215,LONG TERM CARE,MIDLAND,31.98171367,-102.154371,n,n,n,n,n,y
PAM SPECIALITY HOSPITAL OF NEW BRAUNFELS,1445 HANZ DRIVE,NEW BRAUNFELS,TX,78130,(830) 627-7600,LONG TERM CARE,COMAL,29.72926937,-98.10274189,n,n,n,n,n,y
MID-JEFFERSON EXTENDED CARE HOSPITAL,2600 HIGHWAY 365,NEDERLAND,TX,77627,(409) 726-8700,LONG TERM CARE,JEFFERSON,29.95559858,-93.98687658,n,n,n,n,n,y
DUBUIS HOSPITAL OF PARIS,820 CLARKSVILLE STREET,PARIS,TX,75460,(903) 737-3600,LONG TERM CARE,LAMAR,33.68784764,-95.54823349,n,n,n,n,n,y
KINDRED HOSPITAL BAY AREA,4801 EAST SAM HOUSTON PARKWAY SOUTH,PASADENA,TX,77505,(281) 991-5463,LONG TERM CARE,HARRIS,29.63733556,-95.16043245,n,n,n,n,n,y
PLANO SPECIALTY HOSPITAL,1621 COIT ROAD,PLANO,TX,75075,(972) 758-5200,LONG TERM CARE,COLLIN,33.02123751,-96.76907374,n,n,n,n,n,y
LIFECARE HOSPITALS OF PLANO,6800 PRESTON ROAD,PLANO,TX,75024,(214) 473-8822,LONG TERM CARE,COLLIN,33.06549105,-96.79511498,n,n,n,n,n,y
KINDRED HOSPITAL - SAN ANTONIO,3636 MEDICAL DRIVE,SAN ANTONIO,TX,78229,(210) 616-0616,LONG TERM CARE,BEXAR,29.52248579,-98.55637881,n,n,n,n,n,y
KINDRED HOSPITAL - SAN ANTONIO CENTRAL,111 DALLAS STREET4TH FLOOR,SAN ANTONIO,TX,78205,(210) 297-7195,LONG TERM CARE,BEXAR,29.43297807,-98.49220974,n,n,n,n,n,y
NEXUS SPECIALTY HOSPITAL-SHENANDOAH CAMPUS,123 VISION PARK DRIVE,SHENANDOAH,TX,77384,(281) 364-0317,LONG TERM CARE,MONTGOMERY,30.18874977,-95.46018014,n,n,n,n,n,y
CARRUS SPECIALTY HOSPITAL,1810 U.S. HIGHWAY 82 WESTSTE 200,SHERMAN,TX,75092,(903) 870-2600,LONG TERM CARE,GRAYSON,33.66972557,-96.63438619,n,n,n,n,n,y
KINDRED HOSPITAL SUGAR LAND,1550 FIRST COLONY BOULEVARD,SUGAR LAND,TX,77479,(281) 275-6000,LONG TERM CARE,FORT BEND,29.60023248,-95.63826118,n,n,n,n,n,y
ATRIUM MEDICAL CENTER,11929  WEST AIRPORT BOULEVARD,STAFFORD,TX,77477,(281) 207-8200,LONG TERM CARE,FORT BEND,29.64684751,-95.58827701,n,n,n,n,n,y
EAST TEXAS MEDICAL CENTER SPECIALTY HOSPITAL,1000 SOUTH BECKHAM AVENUE5TH FLOOR,TYLER,TX,75711,(903) 596-3004,LONG TERM CARE,SMITH,32.33835568,-95.29103688,n,n,n,n,n,y
TYLER CONTINUE CARE HOSPITAL,800 EAST DAWSON4TH FLOOR,TYLER,TX,75701,(903) 531-4943,LONG TERM CARE,SMITH,32.34262743,-95.29085002,n,n,n,n,n,y
PAM SPECIALTY HOSPITAL OF VICTORIA SOUTH,506 EAST SAN ANTONIO STREET3RD FL,VICTORIA,TX,77901,(361) 575-1445,LONG TERM CARE,VICTORIA,28.80798268,-96.99883805,n,n,n,n,n,y
PAM SPECIALTY HOSPITAL OF VICTORIA NORTH,102 MEDICAL DRIVE,VICTORIA,TX,77904,(361) 576-6200,LONG TERM CARE,VICTORIA,28.85499709,-97.02196107,n,n,n,n,n,y
CORNERSTONE HOSPITAL OF HOUSTON - CLEAR LAKE,709 MEDICAL CENTER BOULEVARD,WEBSTER,TX,77598,(281) 332-3322,LONG TERM CARE,HARRIS,29.5374055,-95.12982931,n,n,n,n,n,y
WILLIAM P. CLEMENTS JR. UNIVERSITY HOSPITAL,6161 HARRY HINES BOULEVARDSUITE 100,DALLAS,TX,75235,(214) 633-5555,LONG TERM CARE,DALLAS,32.81896722,-96.84883749,n,n,n,n,n,y
PROMISE HOSPITAL OF DALLAS,7955 HARRY HINES BOULEVARD,DALLAS,TX,75235,(214) 637-0000,LONG TERM CARE,DALLAS,32.83258117,-96.86203847,n,n,n,n,n,y
KINDRED HOSPITAL - WHITE ROCK,9440 POPPY DRIVE5TH FLOOR SOUTH,DALLAS,TX,75218,(214) 324-6730,LONG TERM CARE,DALLAS,32.83448662,-96.70583767,n,n,n,n,n,y
EL PASO CHILDREN'S HOSPITAL,4845 ALAMEDA AVENUE,EL PASO,TX,79905,(915) 242-8600,CHILDREN,EL PASO,31.7715012,-106.433795,y,y,y,y,y,n
METHODIST SOUTHLAKE HOSPITAL,421 EAST HIGHWAY 114,SOUTHLAKE,TX,76092,(817) 865-4400,GENERAL ACUTE CARE,TARRANT,32.9571804,-97.14523798,y,y,y,y,y,y
CONTINUECARE HOSPITAL OF MIDLAND,4214 ANDREWS HIGHWAYSUITE 320,MIDLAND,TX,79703,(432) 221-1111,LONG TERM CARE,MIDLAND,32.00436321,-102.1350549,n,n,n,n,n,y
CORNERSTONE HOSPITAL - MEDICAL CENTER,2001 HERMANN DRIVESUITE 100,HOUSTON,TX,77004,(832) 649-6200,LONG TERM CARE,HARRIS,29.7186698,-95.38250516,n,n,n,n,n,y
KINDRED HOSPITAL NORTH HOUSTON,7407 NORTH FREEWAY,HOUSTON,TX,77076,NOT AVAILABLE,LONG TERM CARE,HARRIS,29.86738019,-95.40800378,n,n,n,n,n,y
BAYLOR SCOTT & WHITE CONTINUING CARE HOSPITAL,546 KEGLEY ROAD,TEMPLE,TX,76502,(254) 215-0900,LONG TERM CARE,BELL,31.11828493,-97.39929271,n,n,n,n,n,y
VIBRA SPECIALTY HOSPITAL,2700 WALKER WAY,DE SOTO,TX,75115,(972) 298-1100,LONG TERM CARE,DALLAS,32.64465296,-96.88347894,n,n,n,n,n,y
PAM SPECIALTY HOSPITAL OF TEXARKANA SOUTH,1000 PINE STREET6TH FLOOR,TEXARKANA,TX,75501,(903) 798-7600,LONG TERM CARE,BOWIE,33.42908549,-94.04734159,n,n,n,n,n,y
SOLARA HOSPITAL HARLINGEN BROWNSVILLE CAMPUS,333 LORENALY DRIVE,BROWNSVILLE,TX,78520,(956) 546-0808,LONG TERM CARE,CAMERON,25.97380934,-97.50988921,n,n,n,n,n,y
SELECT SPECIALTY HOSPITAL - DALLAS (DOWNTOWN),3500 GASTON AVENUE3RD AND 4TH FLOOR,DALLAS,TX,75246,(972) 227-0093,LONG TERM CARE,DALLAS,32.79026509,-96.78029041,n,n,n,n,n,y
SELECT SPECIALTY HOSPITAL - DALLAS (GARLAND),2300 MARIE CURIE3W & 3E FLOORS,GARLAND,TX,75042,(469) 334-0853,LONG TERM CARE,DALLAS,32.91934267,-96.66137745,n,n,n,n,n,y
VIBRA HOSPITAL OF RICHARDSON,401 WEST CAMPBELL ROADSUITE 300,RICHARDSON,TX,75080,(469) 329-7300,LONG TERM CARE,DALLAS,32.97413807,-96.72711984,n,n,n,n,n,y
ATRIUM MEDICAL CENTER,2813 SOUTH MAYHILL ROAD2ND FLOOR,DENTON,TX,76208,(940) 320-2300,LONG TERM CARE,DENTON,33.17414683,-97.08674805,n,n,n,n,n,y
PARIS REGIONAL MEDICAL CENTER - NORTH CAMPUS,865 DESHONG DRIVE,PARIS,TX,75461,(903) 785-4521,GENERAL ACUTE CARE,LAMAR,33.68773479,-95.54760763,y,y,y,y,y,y
SPRING EXCELLENCE SURGICAL HOSPITAL LLC,20635 KUYKENDAHL ROAD,SPRING,TX,77379,(346) 331-4040,GENERAL ACUTE CARE,HARRIS,30.07097555,-95.51194911,y,y,y,y,y,y
DIGINITY HEALTH-ST.ROSE DOMINICAN BLUE DAIMOND CAMPUS,4855 BLUE DIAMOND ROAD,LAS VAGAS,NV,89139,(702) 216-7305,GENERAL ACUTE CARE,CLARK,36.032117,-115.207116,y,y,y,y,y,y
CONTINUECARE HOSPITAL AT MEDICAL CENTER ODESSA,500 W 4TH STREET4TH FLOOR,ODESSA,TX,79761,(432) 640-4380,LONG TERM CARE,ECTOR,31.84545145,-102.3738874,n,n,n,n,n,y
CORNERSTONE HOSPITAL HOUSTON - BELLAIRE,5314 DASHWOOD,HOUSTON,TX,77081,(713) 295-5300,LONG TERM CARE,HARRIS,29.7079608,-95.47391583,n,n,n,n,n,y
VERMONT PSYCHIATRIC CARE HOSPITAL,280 STATE DRIVENOB 2 NORTH,WATERBURY,VT,5671,(802) 241-0090,PSYCHIATRIC,WASHINGTON,44.33191854,-72.7539322,y,n,n,n,n,y
KINDRED HOSPITAL CLEAR LAKE,350 BLOSSOM STREET,WEBSTER,TX,77598,(281) 316-7800,LONG TERM CARE,HARRIS,29.5436648,-95.12770807,n,n,n,n,n,y
KINDRED HOSPITAL SPRING,205 HOLLOW TREE LANE,HOUSTON,TX,77090,(832) 849-2700,LONG TERM CARE,HARRIS,30.02528619,-95.43561118,n,n,n,n,n,y
KINDRED HOSPITAL THE HEIGHTS,1800 WEST 26TH STREETFLOORS 34 & 5,HOUSTON,TX,77008,(713) 907-8686,LONG TERM CARE,HARRIS,29.80926039,-95.43113267,n,n,n,n,n,y
KINDRED HOSPITAL TOMBALL,505 GRAHAM DRIVE,TOMBALL,TX,77375,(281) 255-5600,LONG TERM CARE,HARRIS,30.08793464,-95.61982896,n,n,n,n,n,y
SOLARA HOSPITAL MCALLEN - EDINBURG,2655 CORNERSTONE BOULEVARD,EDINBURG,TX,78539,(956) 683-1010,LONG TERM CARE,HIDALGO,26.26404819,-98.20081327,n,n,n,n,n,y
NEXUS SPECIALTY HOSPITAL - THE WOODLANDS,9128 SIX PINES DRIVE,THE WOODLANDS,TX,77380,(281) 364-0317,LONG TERM CARE,MONTGOMERY,30.17237239,-95.46065947,n,n,n,n,n,y
CORNERSTONE HOSPITAL AUSTIN - ROUND ROCK,4681 COLLEGE PARK DRIVE,ROUND ROCK,TX,78665,(512) 671-1100,LONG TERM CARE,WILLIAMSON,30.56646678,-97.65766151,n,n,n,n,n,y
CARL R. DARNALL ARMY MEDICAL CENTER,36000 DARNALL LOOP,FORT HOOD,TX,76544,NOT AVAILABLE,MILITARY,BELL,31.13090553,-97.7742904,y,y,y,y,n,y
BROOKE ARMY MEDICAL CENTER,3551 ROGER BROOKE DR,FORT SAM HOUSTON,TX,78234,NOT AVAILABLE,MILITARY,BEXAR,29.46009598,-98.41559126,y,y,y,y,n,y
AUSTIN VA OUTPATIENT CLINIC,7901 METROPOLIS DR,AUSTIN,TX,78744,NOT AVAILABLE,MILITARY,TRAVIS,30.20581604,-97.69028874,y,y,y,y,n,y
THE CORPUS CHRISTI MEDICAL CENTER - DOCTORS REGIONAL,3315 S ALAMEDA ST,CORPUS CHRISTI,TX,78411,(361) 761-1400,GENERAL ACUTE CARE,NUECES,27.75277054,-97.38919228,y,y,y,y,y,y
MULESHOE AREA MEDICAL CENTER,708 SOUTH FIRST STREET,MULESHOE,TX,79347,(806) 272-4524,CRITICAL ACCESS,BAILEY,34.2212693,-102.728677,y,y,y,y,y,y
BAYLOR SCOTT & WHITE MCLANE CHILDREN'S MEDICAL CENTER,1901 SOUTHWEST H. K. DODGEN LOOP,TEMPLE,TX,76502,(254) 771-8600,CHILDREN,BELL,31.07254989,-97.37546506,y,y,y,y,y,n
METROPLEX HOSPITAL,2201 SOUTH CLEAR CREEK ROAD,KILLEEN,TX,76549,(254) 519-8165,GENERAL ACUTE CARE,BELL,31.11344991,-97.80167081,y,y,y,y,y,y
CHRISTUS SPOHN HOSPITAL BEEVILLE,1500 EAST HOUSTON HIGHWAY,BEEVILLE,TX,78102,(361) 354-2125,GENERAL ACUTE CARE,BEE,28.40742754,-97.73154412,y,y,y,y,y,y
SETON MEDICAL CENTER HARKER HEIGHTS,850 WEST CENTRAL TEXAS EXPRESSWAY,HARKER HEIGHTS,TX,76548,(254) 680-6201,GENERAL ACUTE CARE,BELL,31.07260368,-97.68292543,y,y,y,y,y,y
THOMAS E. CREEK VA MEDICAL CENTER,6010 AMARILLO BLVD W,AMARILLO,TX,79106,(806) 355-9703,MILITARY,POTTER,35.20367399,-101.906694,y,y,y,y,n,y
ACUITY HOSPITAL OF SOUTH TEXAS,718 LEXINGTON AVENUE,SAN ANTONIO,TX,78212,(210) 572-4600,LONG TERM CARE,BEXAR,29.43763615,-98.49305967,n,n,n,n,n,y
BAPTIST EMERGENCY HOSPITAL - THOUSAND OAKS,16088 SAN PEDRO,SAN ANTONIO,TX,78232,(210) 402-4092,GENERAL ACUTE CARE,BEXAR,29.58772294,-98.47345927,y,y,y,y,y,y
WEIMAR MEDICAL CENTER,400 YOUENS DRIVE,WEIMAR,TX,78962,(979) 725-8274,GENERAL ACUTE CARE,COLORADO,29.69450237,-96.78813415,y,y,y,y,y,y
BAPTIST EMERGENCY HOSPITAL - WESTOVER HILLS,10811 TOWN CENTER DRIVE,SAN ANTONIO,TX,78232,(210) 572-0911,GENERAL ACUTE CARE,BEXAR,29.46171808,-98.68991382,y,y,y,y,y,y
CHILDREN'S HOSPITAL OF SAN ANTONIO,333 NORTH SANTA ROSA STREET,SAN ANTONIO,TX,78207,(210) 704-3907,CHILDREN,BEXAR,29.42803731,-98.49837581,y,y,y,y,y,n
CHRISTUS SANTA ROSA - MEDICAL CENTER,2827 BABCOCK ROAD,SAN ANTONIO,TX,78229,(210) 705-6021,GENERAL ACUTE CARE,BEXAR,29.51281257,-98.59013727,y,y,y,y,y,y
CHRISTUS SANTA ROSA HOSPITAL - ALAMO HEIGHTS,403 TREELINE PARKBUILDING 1,SAN ANTONIO,TX,78209,(210) 294-8000,GENERAL ACUTE CARE,BEXAR,29.50580177,-98.47604764,y,y,y,y,y,y
CHRISTUS SANTA ROSA HOSPITAL - WESTOVER HILLS,11212 STATE HIGHWAY 151,SAN ANTONIO,TX,78251,(210) 703-8000,GENERAL ACUTE CARE,BEXAR,29.46673399,-98.69591046,y,y,y,y,y,y
BAPTIST MEDICAL CENTER,111 DALLAS STREET,SAN ANTONIO,TX,78205,(210) 297-1020,GENERAL ACUTE CARE,BEXAR,29.43358894,-98.49264078,y,y,y,y,y,y
LIFECARE HOSPITALS OF SAN ANTONIO,8902 FLOYD CURL DRIVE,SAN ANTONIO,TX,78240,(210) 690-7000,LONG TERM CARE,BEXAR,29.52660024,-98.5896663,n,n,n,n,n,y
NIX HEALTH CARE SYSTEM,414 NAVARRO STREET,SAN ANTONIO,TX,78205,(210) 271-1800,GENERAL ACUTE CARE,BEXAR,29.42567199,-98.489416,y,y,y,y,y,y
KAHUKU MEDICAL CENTER,56-117  PUALALEA ST,KAHUKU,HI,96731,(808) 293-9221,LONG TERM CARE,HONOLULU,21.67656379,-157.9542967,n,n,n,n,n,y
KAISER FOUNDATION HOSPITAL,3288 MOANALUA RD,HONOLULU,HI,96819,(808) 432-0000,GENERAL ACUTE CARE,HONOLULU,21.36324847,-157.8999275,y,y,y,y,y,y
KOHALA HOSPITAL,54-383  HOSPITAL RD,KAPAAU,HI,96755,(808) 889-6211,GENERAL ACUTE CARE,HAWAII,20.23251042,-155.7968292,y,y,y,y,y,y
KONA COMMUNITY HOSPITAL,79-1019  HAUKAPILA ST,KEALAKEKUA,HI,96750,(808) 322-9311,GENERAL ACUTE CARE,HAWAII,19.52003097,-155.91741,y,y,y,y,y,y
KUAKINI MEDICAL CENTER,347 NO KUAKINI ST,HONOLULU,HI,96817,(808) 536-2236,GENERAL ACUTE CARE,HONOLULU,21.32203997,-157.8569441,y,y,y,y,y,y
AUSTIN STATE HOSPITAL,4110 GUADALUPE STREET,AUSTIN,TX,78751,(512) 452-0381,PSYCHIATRIC,TRAVIS,30.30911532,-97.73510746,y,n,n,n,n,y
OCEANS BEHAVIORAL HOSPITAL OF ABILENE,4225 WOODS PLACE,ABILENE,TX,79602,(325) 698-6600,PSYCHIATRIC,TAYLOR,32.39999454,-99.73936666,y,n,n,n,n,y
SETON SHOAL CREEK HOSPITAL,3501 MILLS AVENUE,AUSTIN,TX,78731,(512) 324-2000,PSYCHIATRIC,TRAVIS,30.30592149,-97.74839994,y,n,n,n,n,y
AUSTIN LAKES HOSPITAL,1025 EAST 32ND STREET,AUSTIN,TX,78705,(512) 544-5253,PSYCHIATRIC,TRAVIS,30.28852104,-97.72434617,y,n,n,n,n,y
MILLWOOD HOSPITAL,1011 NORTH COOPER STREET,ARLINGTON,TX,76011,(817) 404-2287,PSYCHIATRIC,TARRANT,32.75085193,-97.11322999,y,n,n,n,n,y
CEDAR CREST HOSPITAL,3500 IH 35 SOUTH,BELTON,TX,76513,(254) 939-2100,PSYCHIATRIC,BELL,31.02135915,-97.47680697,y,n,n,n,n,y
BIG SPRING STATE HOSPITAL,1901 NORTH HIGHWAY 87,BIG SPRING,TX,79720,NOT AVAILABLE,PSYCHIATRIC,HOWARD,32.27052408,-101.4979116,y,n,n,n,n,y
ASPIRE BEHAVIORAL HEALTH OF CONROE,2006 SOUTH LOOP 336 WESTSUITE 500,CONROE,TX,78411,(936) 647-3500,PSYCHIATRIC,MONTGOMERY,30.28457402,-95.48004261,y,n,n,n,n,y
BAYVIEW BEHAVIORAL HOSPITAL,6629 WOOLDRIDGE,CORPUS CHRISTI,TX,78414,(361) 986-8200,PSYCHIATRIC,NUECES,27.68009299,-97.36048279,y,n,n,n,n,y
HICKORY TRAIL HOSPITAL,2000 NORTH OLD HICKORY TRAIL,DE SOTO,TX,75115,(972) 298-7323,PSYCHIATRIC,DALLAS,32.62823893,-96.86491473,y,n,n,n,n,y
UNIVERSITY BEHAVIORAL HEALTH OF DENTON,2026 WEST UNIVERSITY,DENTON,TX,76201,(940) 320-8100,PSYCHIATRIC,DENTON,33.2312854,-97.15644671,y,n,n,n,n,y
MAYHILL HOSPITAL,2809 SOUTH MAYHILL ROAD,DENTON,TX,76208,(940) 239-3000,PSYCHIATRIC,DENTON,33.17579219,-97.08682238,y,n,n,n,n,y
EL PASO PSYCHIATRIC CENTER,4615 ALAMEDA AVENUE,EL PASO,TX,79905,NOT AVAILABLE,PSYCHIATRIC,EL PASO,31.77205182,-106.436115,y,n,n,n,n,y
EL PASO BEHAVIORAL HEALTH SYSTEM,1900 DENVER AVENUE,EL PASO,TX,79902,(915) 544-4000,PSYCHIATRIC,EL PASO,31.7803651,-106.4759534,y,n,n,n,n,y
GLEN OAKS HOSPITAL,301 EAST DIVISION ST.,GREENVILLE,TX,75402,(903) 454-6000,PSYCHIATRIC,HUNT,33.12369603,-96.08228748,y,n,n,n,n,y
RIO GRANDE STATE CENTER,1401 SOUTH RANGERVILLE ROAD,HARLINGEN,TX,78551,NOT AVAILABLE,PSYCHIATRIC,CAMERON,26.16067855,-97.70704055,y,n,n,n,n,y
RIVERSIDE GENERAL HOSPITAL,3204 ENNIS STREET,HOUSTON,TX,77004,NOT AVAILABLE,PSYCHIATRIC,HARRIS,29.73091893,-95.36085286,y,n,n,n,n,y
HARRIS COUNTY PSYCHIATRIC CENTER,2800 SOUTH MACGREGOR WAY,HOUSTON,TX,77021,NOT AVAILABLE,PSYCHIATRIC,HARRIS,29.71201681,-95.37442375,y,n,n,n,n,y
WEST OAKS HOSPITAL.,6500 HORNWOOD DRIVE,HOUSTON,TX,77074,(713) 995-0909,PSYCHIATRIC,HARRIS,29.70925137,-95.498084,y,n,n,n,n,y
INTRACARE NORTH HOSPITAL,1120 CYPRESS STATION,HOUSTON,TX,77090,(281) 893-7200,PSYCHIATRIC,HARRIS,30.02365626,-95.44027493,y,n,n,n,n,y
CYPRESS CREEK HOSPITAL,17750 CALI DRIVE,HOUSTON,TX,77090,(281) 586-7600,PSYCHIATRIC,HARRIS,30.0245794,-95.44534571,y,n,n,n,n,y
SUN BEHAVIORAL HOUSTON,7601 FANNIN STREET,HOUSTON,TX,77054,(713) 796-2273,PSYCHIATRIC,HARRIS,29.69058843,-95.40108121,y,n,n,n,n,y
RECOVERY INNOVATIONS - RECOVERY RESPONSE CENTER,17506 RED OAK DRIVE,HOUSTON,TX,77090,(281) 377-5070,PSYCHIATRIC,HARRIS,30.02680386,-95.44992884,y,n,n,n,n,y
HOUSTON BEHAVIORAL HEALTHCARE HOSPITAL LLC,2801 GESSNER DRIVE,HOUSTON,TX,77080,(832) 834-7710,PSYCHIATRIC,HARRIS,29.82342556,-95.54631033,y,n,n,n,n,y
BEHAVIORAL HOSPITAL OF BELLAIRE,5314 DASHWOODSUITE 200 & 300,HOUSTON,TX,77081,(713) 600-9500,PSYCHIATRIC,HARRIS,29.70798221,-95.47341614,y,n,n,n,n,y
WESTBURY COMMUNITY HOSPITAL,6060 RICHMOND AVE# 380,HOUSTON,TX,77057,(713) 422-2609,PSYCHIATRIC,HARRIS,29.73221902,-95.48683064,y,n,n,n,n,y
KERRVILLE STATE HOSPITAL,721 THOMPSON DRIVE,KERRVILLE,TX,78028,NOT AVAILABLE,PSYCHIATRIC,KERR,30.04685502,-99.15625399,y,n,n,n,n,y
KINGWOOD PINES HOSPITAL,2001 LADBROOK DRIVE,KINGWOOD,TX,77339,(281) 404-1001,PSYCHIATRIC,HARRIS,30.04449762,-95.22998414,y,n,n,n,n,y
DEVEREUX TEXAS TREATMENT NETWORK,1150 DEVEREUX DRIVE,LEAGUE CITY,TX,77573,(281) 335-1000,PSYCHIATRIC,GALVESTON,29.5068356,-95.10672113,y,n,n,n,n,y
SUNRISE CANYON,1950 ASPEN AVENUE,LUBBOCK,TX,79408,(806) 740-1400,PSYCHIATRIC,LUBBOCK,33.57294164,-101.8075028,y,n,n,n,n,y
ALLEGIANCE BEHAVIORAL HEALTH CENTER OF PLAINVIEW,2601 DIMMIT ROADFOURTH FLOOR,PLAINVIEW,TX,79072,(806) 296-9191,PSYCHIATRIC,HALE,34.20654009,-101.7325911,y,n,n,n,n,y
TEXAS HEALTH SEAY BEHAVIORAL HEALTH CENTER PLANO,6110 WEST PARKER ROAD,PLANO,TX,75093,NOT AVAILABLE,PSYCHIATRIC,COLLIN,33.04329279,-96.83509622,y,n,n,n,n,y
RUSK STATE HOSPITAL,805 NORTH DICKINSON DRIVE,RUSK,TX,75785,NOT AVAILABLE,PSYCHIATRIC,CHEROKEE,31.80838759,-95.15774878,y,n,n,n,n,y
RIVER CREST HOSPITAL,1636 HUNTERS GLEN ROAD,SAN ANGELO,TX,76901,(325) 949-5722,PSYCHIATRIC,TOM GREEN,31.44727436,-100.510233,y,n,n,n,n,y
SAN ANTONIO STATE HOSPITAL,6711 SOUTH NEW BRAUNFELSSUITE 100,SAN ANTONIO,TX,78223,NOT AVAILABLE,PSYCHIATRIC,BEXAR,29.36013837,-98.45815054,y,n,n,n,n,y
LAUREL RIDGE TREATMENT CENTER,17720 CORPORATE WOODS DRIVE,SAN ANTONIO,TX,78259,(210) 491-9400,PSYCHIATRIC,BEXAR,29.60323065,-98.43788298,y,n,n,n,n,y
CLARITY CHILD GUIDANCE CENTER,8535 TOM SLICK DRIVE,SAN ANTONIO,TX,78229,(210) 616-0300,PSYCHIATRIC,BEXAR,29.52010675,-98.57619951,y,n,n,n,n,y
WILSON N JONES REGIONAL MEDICAL CENTER - BEHAVIORAL HEALTH SERVICES,1111 GALLAGHER ROAD,SHERMAN,TX,75090,(903) 870-7322,PSYCHIATRIC,GRAYSON,33.67387407,-96.60449109,y,n,n,n,n,y
TERRELL STATE HOSPITAL,1200 EAST BRIN STREET,TERRELL,TX,75160,NOT AVAILABLE,PSYCHIATRIC,KAUFMAN,32.74075986,-96.26274185,y,n,n,n,n,y
NORTH TEXAS STATE HOSPITAL,4730 COLLEGE DRIVE,VERNON,TX,76384,NOT AVAILABLE,PSYCHIATRIC,WILBARGER,34.15535295,-99.32598275,y,n,n,n,n,y
DEPAUL CENTER,301 LONDONDERRY DRIVE,WACO,TX,76702,(254) 776-5970,PSYCHIATRIC,MCLENNAN,31.5110022,-97.19839717,y,n,n,n,n,y
RED RIVER HOSPITAL,1505 8TH STREET,WICHITA FALLS,TX,76301,(940) 322-3171,PSYCHIATRIC,WICHITA,33.90630725,-98.50134063,y,n,n,n,n,y
TIMBERLAWN MENTAL HEALTH SYSTEM,4600 SAMUELL BOULEVARD,DALLAS,TX,75228,(214) 381-7181,PSYCHIATRIC,DALLAS,32.79183535,-96.71651281,y,n,n,n,n,y
AUSTIN OAKS HOSPITAL,1407 WEST STASSNEY LANE,AUSTIN,TX,78745,(512) 383-8939,PSYCHIATRIC,TRAVIS,30.21159597,-97.79237579,y,n,n,n,n,y
CARROLLTON SPRINGS,2225 PARKER ROAD,CARROLLTON,TX,75010,(972) 242-4114,PSYCHIATRIC,DENTON,33.04591729,-96.86860721,y,n,n,n,n,y
DALLAS BEHAVIORAL HEALTHCARE HOSPITAL LLC,800 KIRNWOOD DRIVE,DE SOTO,TX,75115,(972) 982-0897,PSYCHIATRIC,DALLAS,32.6424243,-96.87476008,y,n,n,n,n,y
OCEANS BEHAVIORAL HEALTHCARE OF LONGVIEW,615 CLINIC DRIVE,LONGVIEW,TX,75605,(318) 797-6785,PSYCHIATRIC,GREGG,32.53733451,-94.73455975,y,n,n,n,n,y
LONE STAR BEHAVIORAL HEALTH CYPRESS,16303 GRANT ROAD,CYPRESS,TX,77429,(281) 516-6186,PSYCHIATRIC,HARRIS,30.02427992,-95.66277086,y,n,n,n,n,y
MONTGOMERY COUNTY MENTAL HEALTH TREATMENT FACILITY,700 HILBIG ROAD,CONROE,TX,77301,(936) 522-4200,PSYCHIATRIC,MONTGOMERY,30.33578279,-95.44511056,y,n,n,n,n,y
OCEANS BEHAVIORAL HOSPITAL OF THE PERMIAN BASIN,3300 SOUTH FM 1788,MIDLAND,TX,79706,(432) 561-5915,PSYCHIATRIC,MIDLAND,31.92287504,-102.2221648,y,n,n,n,n,y
MESA SPRINGS,5560 MESA SPRINGS DRIVE,FORT WORTH,TX,76123,(817) 292-4600,PSYCHIATRIC,TARRANT,32.6398134,-97.41289763,y,n,n,n,n,y
PAM REHABILITATION HOSPITAL OF CENTENNIAL HILLS,6166 N DURANGO DRIVE,LAS VAGAS,NV,89149,(725) 223-4100,REHABILITATION,CLARK,36.27513433,-115.2803555,y,y,n,n,n,y
OCEANS BEHAVIORAL HOSPITAL OF LUFKIN,302 GLOBBERS KNOB ROAD,LUFKIN,TX,75902,(936) 632-2276,PSYCHIATRIC,ANGELINA,31.30707384,-94.74573876,y,n,n,n,n,y
SUNDANCE HOSPITAL,7000 US HIGHWAY 287,ARLINGTON,TX,76001,(817) 222-9191,PSYCHIATRIC,TARRANT,32.62799796,-97.17785112,y,n,n,n,n,y
TEXAS HEALTH SPRINGWOOD HOSPITAL HURST-EULESS-BEDFORD,2717 TIBBETS DRIVE,BEDFORD,TX,76022,(817) 848-7771,PSYCHIATRIC,TARRANT,32.83458837,-97.12246905,y,n,n,n,n,y
THE MENNINGER CLINIC,12301 SOUTH MAIN STREET,HOUSTON,TX,77035,NOT AVAILABLE,PSYCHIATRIC,HARRIS,29.64637014,-95.45758019,y,n,n,n,n,y
METROPLEX PAVILION,2407 SOUTH CLEAR CREEK ROAD,KILLEN,TX,76549,(254) 519-8328,PSYCHIATRIC,BELL,31.11166531,-97.80274157,y,n,n,n,n,y
NIX BEHAVIORAL HEALTH CENTER,1975 BABCOCK RD,SAN ANTONIO,TX,78229,(210) 271-2188,PSYCHIATRIC,BEXAR,29.49964983,-98.57672949,y,n,n,n,n,y
SAN ANTONIO BEHAVIORAL HEALTHCARE HOSPITAL LLC,8550 HUEBNER ROAD,SAN ANTONIO,TX,78222,(210) 541-5300,PSYCHIATRIC,BEXAR,29.51629527,-98.60500128,y,n,n,n,n,y
ROCK PRAIRIE BEHAVIORAL HEALTH,3550 NORMAND DRIVE,COLLEGE STATION,TX,77842,(979) 703-8848,PSYCHIATRIC,BRAZOS,30.58055046,-96.29257915,y,n,n,n,n,y
PALMS BEHAVIORAL HEALTH,613 VICTORIA LANE,HARLINGEN,TX,78550,(844) 601-4040,PSYCHIATRIC,CAMERON,26.16357422,-97.67216229,y,n,n,n,n,y
MEDICAL CENTER OF MCKINNEY - WYSONG CAMPUS,130 SOUTH CENTRAL EXPRESSWAY,MCKINNEY,TX,75070,(972) 548-5300,PSYCHIATRIC,COLLIN,33.19729748,-96.64053232,y,n,n,n,n,y
EATING RECOVERY CENTER,4708 ALLIANCE BOULEVARDTHIRD FLOOR,PLANO,TX,75093,(972) 479-5779,PSYCHIATRIC,COLLIN,33.01352063,-96.79205068,y,n,n,n,n,y
HOPEBRIDGE HOSPITAL,5556 GASMER,HOUSTON,TX,77035,(713) 422-2600,PSYCHIATRIC,HARRIS,29.65173635,-95.4777382,y,n,n,n,n,y
HAVEN BEHAVIORAL HOSPITAL OF FRISCO,5680 FRISCO SQUARE BOULEVARD,FRISCO,TX,75034,(469) 535-8000,PSYCHIATRIC,COLLIN,33.15113861,-96.83785811,y,n,n,n,n,y
GARLAND BEHAVIORAL HOSPITAL,2300 MARIE CURIVE BLVD5TH FLOOR,GARLAND,TX,75042,(972) 487-5309,PSYCHIATRIC,DALLAS,32.91977573,-96.66210319,y,n,n,n,n,y
SUNDANCE HOSPITAL DALLAS,2696 W WALNUT ST,GARLAND,TX,75042,(469) 440-5566,PSYCHIATRIC,DALLAS,32.91329646,-96.67016005,y,n,n,n,n,y
WESTPARK SPRINGS,6902 S PEEK ROAD,RICHMOND,TX,77407,(832) 535-2770,PSYCHIATRIC,FORT BEND,29.69434022,-95.76104056,y,n,n,n,n,y
TMC BEHAVIORAL HEALTH CENTER,2601 CORNERSTONE DRIVE,SHERMAN,TX,75090,(903) 416-3000,PSYCHIATRIC,GRAYSON,33.66354355,-96.61335928,y,n,n,n,n,y
OCEANS BEHAVIORAL HOSPITAL OF KATY,455 PARK GROVE LANE,KATY,TX,77450,(281) 492-8888,PSYCHIATRIC,HARRIS,29.7779641,-95.74854047,y,n,n,n,n,y
VERMONT PSYCHIATRIC CARE HOSPITAL,350 FISHER ROAD,BERLIN,VT,5633,(802) 823-3300,PSYCHIATRIC,WASHINGTON,44.222624,-72.564716,y,n,n,n,n,y
BEHAVIORAL MEDICINE AT RENAISSANCE,5510 RAPHAEL DRIVE,EDINBURG,TX,78539,(956) 362-7293,PSYCHIATRIC,HIDALGO,26.25310267,-98.20115591,y,n,n,n,n,y
SOUTH TEXAS BEHAVIORAL HEALTH CENTER,2102 WEST TRENTON ROAD,EDINBURG,TX,78503,(956) 388-1300,PSYCHIATRIC,HIDALGO,26.26204925,-98.1903686,y,n,n,n,n,y
BAPTIST HOSPITALS OF SOUTHEAST TEXAS FANNIN BEHAVIORAL CENTER,3250 FANNIN,BEAUMONT,TX,77701,(409) 212-7000,PSYCHIATRIC,JEFFERSON,30.07290488,-94.12295454,y,n,n,n,n,y
THE PAVILIION,7201 EVANS,AMARILLO,TX,79106,(806) 354-1850,PSYCHIATRIC,POTTER,35.20065636,-101.9185355,y,n,n,n,n,y
EAST TEXAS MEDICAL CENTER BEHAVIORAL HEALTH CENTER,4101 UNIVERSITY BOULEVARD,TYLER,TX,75701,(903) 266-2253,PSYCHIATRIC,SMITH,32.31119781,-95.2487673,y,n,n,n,n,y
JPS HEALTH NETWORK - TRINITY SPRINGS NORTH,1000 ST LOUIS AVENUE,FORTH WORTH,TX,76104,(817) 702-1088,PSYCHIATRIC,TARRANT,32.73393445,-97.32864083,y,n,n,n,n,y
CROSS CREEK HOSPITAL,8402 CROSS PARK DRIVE,AUSTIN,TX,78754,(512) 215-3900,PSYCHIATRIC,TRAVIS,30.338202,-97.67722948,y,n,n,n,n,y
TEXAS NEUROREHAB CENTER BEHAVIORAL,1106 WEST DITTMAR ROADBUILDING 1 & 15,AUSTIN,TX,78745,(512) 444-4835,PSYCHIATRIC,TRAVIS,30.18944156,-97.80627944,y,n,n,n,n,y
GEORGETOWN BEHAVIORAL HEALTH INSTITUE,3101 S AUSTIN AVE,GEORGETOWN,TX,78626,(512) 819-1100,PSYCHIATRIC,WILLIAMSON,30.61490177,-97.68063183,y,n,n,n,n,y
ROCK SPRINGS,700 SOUTHEAST INNER LOOP,GEORGETOWN,TX,78626,(512) 819-9400,PSYCHIATRIC,WILLIAMSON,30.60604065,-97.67346489,y,n,n,n,n,y
NORTH TEXAS STATE HOSPITAL WICHITA FALLS CAMPUS,6515 KEMP BOULEVARD,WICHITA FALLS,TX,76308,(940) 692-1220,PSYCHIATRIC,WICHITA,33.84582428,-98.52418343,y,n,n,n,n,y
CASA AMISTAD,1500 PAPPAS#664,LAREDO,TX,78041,(956) 794-3405,PSYCHIATRIC,WEBB,27.53697464,-99.47690542,y,n,n,n,n,y
KULA HOSPITAL,100 KEOKEA PLACE,KULA,HI,96790,(808) 878-1221,GENERAL ACUTE CARE,MAUI,20.70140265,-156.3574296,y,y,y,y,y,y
LANAI COMMUNITY HOSPITAL,628 7TH ST,LANAI CITY,HI,96763,(808) 565-6411,SPECIAL,MAUI,20.82614245,-156.9178958,y,y,y,y,y,y
LEAHI HOSPITAL,3675 KILAUEA AVENUE,HONOLULU,HI,96816,(808) 733-8000,SPECIAL,HONOLULU,21.27325508,-157.8014934,y,y,y,y,y,y
MAUI MEMORIAL MEDICAL CENTER,221 MAHALANI ST,WAILUKU,HI,96793,(808) 442-5101,GENERAL ACUTE CARE,MAUI,20.88451359,-156.489331,y,y,y,y,y,y
MOLOKAI GENERAL HOSPITAL,280 HOME OLU PL,KAUNAKAKAI,HI,96748,(808) 553-5331,GENERAL ACUTE CARE,MAUI,21.09410802,-157.0172527,y,y,y,y,y,y
KAPIOLANI MEDICAL CENTER,1319 PUNAHOU ST,HONOLULU,HI,96826,(808) 983-6000,CHILDREN,HONOLULU,21.3003561,-157.8337365,y,y,y,y,y,n
NORTH HAWAII COMMUNITY HOSPITAL,67-1125 MAMALAHOA HWY,KAMUELA,HI,96743,(808) 885-4444,GENERAL ACUTE CARE,HAWAII,20.0223089,-155.6644209,y,y,y,y,y,y
PALI MOMI MEDICAL CENTER,98-1079  MOANALUA RD,AIEA,HI,96701,(808) 486-6000,GENERAL ACUTE CARE,HONOLULU,21.38347864,-157.9386956,y,y,y,y,y,y
QUEEN'S MEDICAL CENTER WEST,91-2141  FORT WEAVER RD,EWA BEACH,HI,96706,(808) 547-6011,GENERAL ACUTE CARE,HONOLULU,21.37234105,-158.0268153,y,y,y,y,y,y
QUEENS MEDICAL CENTER,1301 PUNCHBOWL STREET,HONOLULU,HI,96813,(808) 538-9011,GENERAL ACUTE CARE,HONOLULU,21.3080396,-157.8536385,y,y,y,y,y,y
REHABILITATION HOSPITAL OF THE PACIFIC,226 NO KUAKINI ST,HONOLULU,HI,96817,(808) 531-3511,REHABILITATION,HONOLULU,21.32141338,-157.8544936,y,y,n,n,n,y
SAMUEL MAHELONA  MEMORIAL HOSPITAL,4800 KAWAIHAU RD,KAPAA,HI,96746,(808) 822-4961,GENERAL ACUTE CARE,KAUAI,22.08782195,-159.3128754,y,y,y,y,y,y
HEALTHSOUTH REHABILITATION HOSPITAL OF ABILENE,6401 DIRECTORS PARKWAY,ABILENE,TX,79606,(972) 308-8517,REHABILITATION,TAYLOR,32.37142823,-99.74384655,y,y,n,n,n,y
PAM REHABILITATION HOSPITAL OF ALLEN,1001 RAINTREE CIRCLE,ALLEN,TX,75013,(972) 908-2000,REHABILITATION,COLLIN,33.11307427,-96.6764303,y,y,n,n,n,y
HEALTHSOUTH REHABILITATION HOSPITAL OF ARLINGTON,3200 MATLOCK ROAD,ARLINGTON,TX,76015,(817) 468-4000,REHABILITATION,TARRANT,32.69377148,-97.11825624,y,y,n,n,n,y
ST. DAVID'S REHABILITATION CENTER,1005 EAST 32ND STREET,AUSTIN,TX,78705,(512) 544-5100,REHABILITATION,TRAVIS,30.28968932,-97.72498576,y,y,n,n,n,y
HEALTHSOUTH REHABILITATION HOSPITAL OF AUSTIN,1215 RED RIVER,AUSTIN,TX,78701,NOT AVAILABLE,REHABILITATION,TRAVIS,30.2731284,-97.73411294,y,y,n,n,n,y
PAM REHABILITATION HOSPITAL OF BEAUMONT,3340 PLAZA 10 BOULEVARD,BEAUMONT,TX,77707,(409) 835-0835,REHABILITATION,JEFFERSON,30.07741791,-94.13788905,y,y,n,n,n,y
HEALTHSOUTH REHABILITATION HOSPITAL OF THE MID-CITIES,2304 STATE HIGHWAY 121,BEDFORD,TX,76021,(817) 870-2336,REHABILITATION,TARRANT,32.84533965,-97.1132574,y,y,n,n,n,y
KATE DISHMAN REHABILITATION HOSPITAL,2830 CALDER STREET6TH FLOOR SOUTH,BEAUMONT,TX,77702,(409) 899-8380,REHABILITATION,JEFFERSON,30.08690903,-94.13221625,y,y,n,n,n,y
VIBRA REHABILITATION HOSPITAL OF AMARILLO,7200 WEST 9TH STREET,AMARILLO,TX,79106,(806) 468-2900,REHABILITATION,POTTER,35.20670495,-101.920865,y,y,n,n,n,y
SOUTH TEXAS REHABILITATION HOSPITAL,425 EAST ALTON GLOOR BOULEVARD,BROWNSVILLE,TX,78526,(956) 554-6000,REHABILITATION,CAMERON,25.98064316,-97.51056022,y,y,n,n,n,y
CHI ST JOSEPH REHAB HOSPITAL,1600 JOSEPH DRIVE,BRYAN,TX,77802,(979) 821-7579,REHABILITATION,BRAZOS,30.65993299,-96.3507145,y,y,n,n,n,y
HEALTHSOUTH REHABILITATION HOSPITAL THE WOODLANDS,18550 INTERSTATE HIGHWAY 45 SOUTH,CONROE,TX,77304,(281) 364-2000,REHABILITATION,MONTGOMERY,30.18560374,-95.45446695,y,y,n,n,n,y
METHODIST REHABILITATION HOSPITAL,3020 WEST WHEATLAND ROAD,DALLAS,TX,75237,(972) 708-8600,REHABILITATION,DALLAS,32.64633778,-96.87102402,y,y,n,n,n,y
HEALTHSOUTH REHABILITATION HOSPITAL OF DALLAS,7930 NORTHAVEN,DALLAS,TX,75230,NOT AVAILABLE,REHABILITATION,DALLAS,32.90107033,-96.77052204,y,y,n,n,n,y
SELECT REHABILITATION HOSPITAL OF DENTON,2620 SCRIPTURE STREET,DENTON,TX,76201,(940) 297-6500,REHABILITATION,DENTON,33.21994092,-97.16784483,y,y,n,n,n,y
HIGHLANDS REGIONAL REHABILITATION HOSPITAL,1395 GEORGE DIETER DRIVE,EL PASO,TX,79936,(915) 298-7222,REHABILITATION,EL PASO,31.73216973,-106.3030273,y,y,n,n,n,y
HEALTHSOUTH REHABILITATION HOSPITAL OF FORTH WORTH,1212 WEST LANCASTER,FORT WORTH,TX,76102,(817) 870-2336,REHABILITATION,TARRANT,32.747384,-97.3395734,y,y,n,n,n,y
HEALTHSOUTH CITY VIEW REHABILITATION HOSPITAL,6701 OAKMONT BOULEVARD,FORT WORTH,TX,76132,(817) 370-4700,REHABILITATION,TARRANT,32.6620118,-97.41279008,y,y,n,n,n,y
TIRR MEMORIAL HERMANN,1333 MOURSUND STREET,HOUSTON,TX,77030,(713) 799-5000,REHABILITATION,HARRIS,29.7093368,-95.39403896,y,y,n,n,n,y
HEALTHSOUTH REHABILITATION HOSPITAL OF HUMBLE,19002 MCKAY DRIVE,HUMBLE,TX,77338,(281) 446-6148,REHABILITATION,HARRIS,29.99373522,-95.2773293,y,y,n,n,n,y
MEMORIAL HERMANN REHABILITATION HOSPITAL KATY,21720 KINGSLAND BOULEVARD#102,KATY,TX,77450,(281) 579-5678,REHABILITATION,HARRIS,29.77576548,-95.74579933,y,y,n,n,n,y
TRUSTPOINT REHABILITATION HOSPITAL OF LUBBOCK,4302 PRINCETON STREET,LUBBOCK,TX,79415,(806) 749-2222,REHABILITATION,LUBBOCK,33.61709402,-101.903157,y,y,n,n,n,y
MESQUITE REHABILITATION HOSPITAL,1023 NORTH BELT LINE ROAD,MESQUITE,TX,75149,(972) 216-2400,REHABILITATION,DALLAS,32.7784212,-96.59849193,y,y,n,n,n,y
HEALTHSOUTH REHABILITATION HOSPITAL OF MIDLAND/ODESSA,1800 HERITAGE BOULEVARD,MIDLAND,TX,79707,(432) 520-1600,REHABILITATION,MIDLAND,31.99956331,-102.1559482,y,y,n,n,n,y
HEALTHSOUTH PLANO REHABILITATION HOSPITAL,2800 WEST 15TH STREET,PLANO,TX,75075,(972) 612-9000,REHABILITATION,COLLIN,33.01842055,-96.74824313,y,y,n,n,n,y
HEALTHSOUTH REHABILITATION HOSPITAL RICHARDSON,3351 WATERVIEW PARKWAY,RICHARDSON,TX,75080,(972) 398-5700,REHABILITATION,DALLAS,32.99798275,-96.75493758,y,y,n,n,n,y
HEALTHSOUTH REHABILITATION HOSPITAL OF ROUND ROCK,1400 HESTER'S CROSSING,ROUND ROCK,TX,78681,(512) 244-4400,REHABILITATION,WILLIAMSON,30.4835233,-97.69343509,y,y,n,n,n,y
HEALTHSOUTH REHABILITATION INSTITUTE OF SAN ANTONIO,9119 CINNAMON HILL,SAN ANTONIO,TX,78240,(210) 691-0737,REHABILITATION,BEXAR,29.52726915,-98.58412986,y,y,n,n,n,y
WARM SPRINGS REHABILITATION HOSPITAL OF SAN ANTONIO,5101 MEDICAL DRIVE,SAN ANTONIO,TX,78229,(210) 616-0100,REHABILITATION,BEXAR,29.51390899,-98.58695815,y,y,n,n,n,y
SELECT REHABILITATION HOSPITAL OF SAN ANTONIO,19126 STONEHUE,SAN ANTONIO,TX,78258,(210) 482-3400,REHABILITATION,BEXAR,29.62823132,-98.4923585,y,y,n,n,n,y
HEALTHSOUTH REHABILITATION HOSPITAL VISION PARK,117 VISION PARK BOULEVARD,SHENANDOAH,TX,77384,(936) 444-1700,REHABILITATION,MONTGOMERY,30.18993839,-95.45850831,y,y,n,n,n,y
CARRUS REHABILITATION HOSPITAL,1810 WEST HIGHWAY 82STE 100,SHERMAN,TX,75092,(903) 870-2600,REHABILITATION,GRAYSON,33.66970891,-96.63515951,y,y,n,n,n,y
HEALTHSOUTH SUGAR LAND REHABILITATION HOSPITAL,1325 HIGHWAY 6,SUGAR LAND,TX,77478,(281) 276-7574,REHABILITATION,FORT BEND,29.60439957,-95.63326382,y,y,n,n,n,y
HEALTHSOUTH REHABILITATION HOSPITAL OF TEXARKANA,515 WEST 12TH STREET,TEXARKANA,TX,75501,(903) 735-5000,REHABILITATION,BOWIE,33.43007747,-94.04822781,y,y,n,n,n,y
CHRISTUS ST. MICHAEL REHABILITATION HOSPITAL,2400 ST MICHAEL DRIVE,TEXARKANA,TX,75504,(903) 614-4000,REHABILITATION,BOWIE,33.46503055,-94.07072522,y,y,n,n,n,y
CHRISTUS TRINITY MOTHER FRANCES REHABILITATION HOSPITAL,3131 TROUP HIGHWAY,TYLER,TX,75701,(903) 510-7000,REHABILITATION,SMITH,32.31487664,-95.2777701,y,y,n,n,n,y
EAST TEXAS MEDICAL CENTER REHABILITATION HOSPITAL,701 OLYMPIC PLAZA CIRCLE,TYLER,TX,75701,(903) 596-3000,REHABILITATION,SMITH,32.33688776,-95.291956,y,y,n,n,n,y
KINDRED REHABILITATION HOSPITAL CLEAR LAKE,655 EAST MEDICAL CENTER BOULEVARD,WEBSTER,TX,77598,(281) 286-1500,REHABILITATION,HARRIS,29.54759011,-95.11754744,y,y,n,n,n,y
WESLACO REHABILITATION HOSPITAL,906 SOUTH JAMES STREET,WESLACO,TX,78596,(956) 969-2222,REHABILITATION,HIDALGO,26.1510039,-97.97707053,y,y,n,n,n,y
HEALTHSOUTH REHABILITATION HOSPITAL OF WICHITA FALLS,3901 ARMORY ROAD,WICHITA FALLS,TX,76302,(940) 720-5700,REHABILITATION,WICHITA,33.87387587,-98.48467593,y,y,n,n,n,y
BAYLOR INSTITUTE FOR REHABILITATION,909 N. WASHINGTON AVENUE,DALLAS,TX,75246,(214) 820-9300,REHABILITATION,DALLAS,32.79157855,-96.78043674,y,y,n,n,n,y
BAYLOR INSTITUTE FOR REHABILITATION AT FORT WORTH,6601 HARRIS PARKWAY,FORT WORTH,TX,76132,(817) 433-9600,REHABILITATION,TARRANT,32.65421034,-97.41803838,y,y,n,n,n,y
BAYLOR INSTITUTE FOR REHABILITATION AT FRISCO,2990 LEGACY DRIVE,FRISCO,TX,75034,(469) 888-5100,REHABILITATION,COLLIN,33.10295419,-96.84038653,y,y,n,n,n,y
ICARE REHABILTATION HOSPITAL,3100 PETERS COLONY ROAD,FLOWER MOUND,TX,75022,(214) 513-0310,REHABILITATION,DENTON,33.03536409,-97.07726192,y,y,n,n,n,y
CORPUS CHRISTI REHABILITATION HOSPITAL,5726 ESPLANADE DRVIE,CORPUS CHRISTI,TX,78414,(361) 906-3700,REHABILITATION,NUECES,27.68844884,-97.37805548,y,y,n,n,n,y
ACCEL REHABILITATION HOSPITAL OF PLANO,2301 MARSH LANESUITE 200,PLANO,TX,75093,(972) 899-5510,REHABILITATION,DENTON,33.03139595,-96.85435167,y,y,n,n,n,y
BAYLOR INSTITUTE FOR REHABILITATION AT NORTHWEST DALLAS,1340 EMPIRE CENTRAL DRIVE,DALLAS,TX,75247,NOT AVAILABLE,REHABILITATION,DALLAS,32.82601681,-96.86986391,y,y,n,n,n,y
HEALTHSOUTH REHABILITATION HOSPITAL OF CYPRESS,13031 WORTHAM CENTER DRIVE,HOUSTON,TX,77065,(832) 280-2500,REHABILITATION,HARRIS,29.92033796,-95.61340961,y,y,n,n,n,y
KINDRED REHABILITATION HOSPITAL NORTHEAST HOUSTON,18839 MCKAY BOULEVARD,HUMBLE,TX,77338,(281) 446-3655,REHABILITATION,HARRIS,29.99214808,-95.27899235,y,y,n,n,n,y
HEALTHSOUTH REHABILITATION HOSPITAL OF AUSTIN,330 WEST BEN WHITE,AUSTIN,TX,78704,(512) 730-4800,REHABILITATION,TRAVIS,30.22571366,-97.76632301,y,y,n,n,n,y
NEW BRAUNFELS REGIONAL REHABILITATION HOSPITAL,2041 SUNDANCE PARKWAY,NEW BRAUNFELS,TX,78130,(830) 625-6700,REHABILITATION,COMAL,29.73513973,-98.0951514,y,y,n,n,n,y
HEALTHSOUTH REHABILITATION HOSPITAL THE VINTAGE,20180 CHASEWOOD PARK DRIVE,HOUSTON,TX,77070,(281) 205-5100,REHABILITATION,HARRIS,29.99017655,-95.57110864,y,y,n,n,n,y
TEXAS REHABILITATION HOSPITAL OF FORT WORTH,425 ALABAMA AVENUE,FORT WORTH,TX,76104,(817) 820-3400,REHABILITATION,TARRANT,32.74074231,-97.34137684,y,y,n,n,n,y
PAM REHABILITATION HOSPITAL OF VICTORIA,101 JAMES COLEMAN DRIVE,VICTORIA,TX,77904,(361) 894-7830,REHABILITATION,VICTORIA,28.8557836,-97.02265217,y,y,n,n,n,y
WARM SPRINGS REHABILITATION HOSPITAL OF THOUSAND OAKS,14747 JONES MALTSBERGER ROAD,SAN ANTONIO,TX,78247,(210) 581-5300,REHABILITATION,BEXAR,29.57636556,-98.44485484,y,y,n,n,n,y
WARM SPRINGS REHABILITATION HOSPITAL OF WESTOVER HILLS,10323 STATE HWY 151,SAN ANTONIO,TX,78251,(210) 422-8791,REHABILITATION,BEXAR,29.45190785,-98.68457631,y,y,n,n,n,y
LAS PALMAS REHABILITATION HOSPITAL,300 WAYMORE,EL PASO,TX,79902,(915) 577-2600,REHABILITATION,EL PASO,31.78905323,-106.508826,y,y,n,n,n,y
REBA MCENTIRE CENTER FOR REHABILITATION,1200 REBA MCENTIRE LANE,DENISON,TX,75020,(903) 416-1000,REHABILITATION,GRAYSON,33.77021768,-96.55128107,y,y,n,n,n,y
PAM REHABILITATION HOSPITAL OF CLEAR LAKE,110 EAST MEDICAL CENTER BOULEVARD,WEBSTER,TX,77598,(832) 224-9500,REHABILITATION,HARRIS,29.54327694,-95.12004858,y,y,n,n,n,y
WARM SPRINGS REHABILITATION HOSPITAL OF KYLE,5980 KYLE PARKWAY,KYLE,TX,78640,(512) 262-0821,REHABILITATION,HAYS,30.00839095,-97.85628014,y,y,n,n,n,y
REHAB CENTER AT RENAISSANCE,5403 DOCTORS DRIVE,EDINBURG,TX,78539,(956) 362-6325,REHABILITATION,HIDALGO,26.25518708,-98.20633362,y,y,n,n,n,y
CECIL R BOMAR REHABILITATION CENTER,707 WOOD STREET,NACOGDOCHES,TX,75961,(936) 564-7422,REHABILITATION,NACOGDOCHES,31.61197484,-94.64665259,y,y,n,n,n,y
WEATHERFORD REHABILITATION HOSPITAL LLC,703 EUREKA ST,WEATHERFORD,TX,76086,(214) 472-4101,REHABILITATION,PARKER,32.75062142,-97.78774264,y,y,n,n,n,y
TEXAS REHABILITATION HOSPITAL OF ARLINGTON,900 W ARBROOK BLVD,ARLINGTON,TX,76015,(682) 308-9867,REHABILITATION,TARRANT,32.68212164,-97.11936982,y,y,n,n,n,y
CENTRAL TEXAS REHABILIATION HOSPITAL,700 WEST 45TH STREET,AUSTIN,TX,78751,(512) 323-0756,REHABILITATION,TRAVIS,30.31227048,-97.73479337,y,y,n,n,n,y
LAREDO REHABILITATION HOSPITAL,2005 A BUSTAMENTE STREET,LAREDO,TX,78041,(956) 764-8555,REHABILITATION,WEBB,27.5338972,-99.47366602,y,y,n,n,n,y
PROVIDENCE HOSPITAL,230 CALLE DEL NORTE,LAREDO,TX,78041,(956) 693-5000,REHABILITATION,WEBB,27.55637042,-99.49195932,y,y,n,n,n,y
WISE REGIONAL HEALTH INPATIENT REHABILITATION,2000 SOUTH FM 51,DECATUR,TX,76234,(940) 626-4001,REHABILITATION,WISE,33.21784466,-97.59338257,y,y,n,n,n,y
PHYSICIANS SURGICAL HOSPITAL - QUAIL CREEK,6819 PLUM CREEK DRIVE,AMARILLO,TX,79124,(806) 354-6100,SPECIAL,POTTER,35.21042221,-101.9127795,y,y,y,y,y,y
TEXAS HEALTH HEART & VASCULAR HOSPITAL  ARLINGTON,800 W. RANDOL MILL  RD.,ARLINGTON,TX,76012,(817) 960-3500,SPECIAL,TARRANT,32.74750293,-97.11722863,y,y,y,y,y,y
NORTHWEST HILLS SURGICAL HOSPITAL,6818 AUSTIN CENTER BOULEVARD,AUSTIN,TX,78731,(512) 346-1994,SPECIAL,TRAVIS,30.35051386,-97.75171622,y,y,y,y,y,y
USMD HOSPITAL AT ARLINGTON,801 WEST I-20,ARLINGTON,TX,76017,(817) 472-3400,SPECIAL,TARRANT,32.67980941,-97.11791224,y,y,y,y,y,y
BAYLOR ORTHOPEDIC AND SPINE HOSPITAL AT ARLINGTON,707 HIGHLANDER BOULEVARD,ARLINGTON,TX,76015,(817) 583-7100,SPECIAL,TARRANT,32.68289778,-97.11697677,y,y,y,y,y,y
CHRISTUS SOUTHEAST TEXAS ORTHOPEDIC SPECIALTY CENTER,3650 LAUREL AVENUE,BEAUMONT,TX,77707,(409) 838-0346,SPECIAL,JEFFERSON,30.08338278,-94.1398084,y,y,y,y,y,y
BELLAIRE SURGICAL HOSPITAL HOLDINGS LLC,411 FIRST STREET,BELLAIRE,TX,77401,(713) 275-1111,SPECIAL,HARRIS,29.7099774,-95.4626713,y,y,y,y,y,y
THE HEART HOSPITAL BAYLOR DENTON,2801 SOUTH MAHILL ROAD,DENTON,TX,76208,(940) 220-0600,SPECIAL,DENTON,33.17662147,-97.08734292,y,y,y,y,y,y
EL PASO SPECIALTY HOSPITAL,1755 CURIESUITE A,EL PASO,TX,79902,(915) 544-3636,SPECIAL,EL PASO,31.78036759,-106.4776047,y,y,y,y,y,y
USMD HOSPITAL AT FORT WORTH,5900 DIRKS ROAD,FORT WORTH,TX,76132,(817) 433-9100,SPECIAL,TARRANT,32.64653072,-97.41869014,y,y,y,y,y,y
UNIVERSITY OF TEXAS M.D. ANDERSON CANCER CENTER,1515 HOLCOMBE BOULEVARD BOX 43,HOUSTON,TX,77030,NOT AVAILABLE,SPECIAL,HARRIS,29.70703136,-95.39707717,y,y,y,y,y,y
TOPS SURGICAL SPECIALTY HOSPITAL,17080 RED OAK DRIVE,HOUSTON,TX,77090,(281) 943-7400,SPECIAL,HARRIS,30.0188957,-95.44394499,y,y,y,y,y,y
HOUSTON HOSPITAL FOR SPECIALIZED SURGERY,5445 LA BRANCH STREET,HOUSTON,TX,77004,(713) 528-6800,SPECIAL,HARRIS,29.72417952,-95.383959,y,y,y,y,y,y
TEXAS ORTHOPEDIC HOSPITAL,7401 SOUTH MAIN STREET,HOUSTON,TX,77030,(713) 794-3498,SPECIAL,HARRIS,29.70021194,-95.4090686,y,y,y,y,y,y
LUBBOCK HEART HOSPITAL,4810 NORTH LOOP 289,LUBBOCK,TX,79416,(806) 687-7777,SPECIAL,LUBBOCK,33.60321011,-101.9155688,y,y,y,y,y,y
THE HEART HOSPITAL BAYLOR PLANO,1100 ALLIED DRIVE,PLANO,TX,75093,(469) 814-5599,SPECIAL,COLLIN,33.01459949,-96.7893949,y,y,y,y,y,y
METHODIST AMBULATORY SURGERY HOSPITAL - NORTHWEST,9150 HUEBNER ROADSUITE 100,SAN ANTONIO,TX,78240,(210) 575-5080,SPECIAL,BEXAR,29.52688039,-98.59497177,y,y,y,y,y,y
SOUTH TEXAS SPINE AND SURGICAL HOSPITAL,18600 NORTH HARDY OAK BOULEVARD,SAN ANTONIO,TX,78258,(210) 507-4092,SPECIAL,BEXAR,29.61325343,-98.47736715,y,y,y,y,y,y
TEXAS SPINE AND JOINT HOSPITAL,1814 ROSELAND BOULEVARD,TYLER,TX,75701,(903) 525-3300,SPECIAL,SMITH,32.32915158,-95.29852291,y,y,y,y,y,y
TEXAS INSTITUTE FOR SURGERY AT TEXAS HEALTH PRESBYTERIAN DALLAS,7115 GREENVILLE AVENUE,DALLAS,TX,75231,(214) 647-5300,SPECIAL,DALLAS,32.87687764,-96.76226157,y,y,y,y,y,y
BAYLOR HEART AND VASCULAR CENTER,621 N. HALL STREET,DALLAS,TX,75226,(214) 820-0600,SPECIAL,DALLAS,32.78817065,-96.78119411,y,y,y,y,y,y
LLANO SPECIALTY HOSPITAL,1409 9TH STREET,LUBBOCK,TX,79401,NOT AVAILABLE,SPECIAL,LUBBOCK,33.5867927,-101.8508308,y,y,y,y,y,y
BAYLOR SURGICAL HOSPITAL AT LAS COLINAS,400 WEST INTERSTATE 635,IRVING,TX,75063,(972) 868-4000,SPECIAL,DALLAS,32.91229177,-96.95221323,y,y,y,y,y,y
CUMBERLAND SURGICAL HOSPITAL,5330 NORTH LOOP 1604 WEST,SAN ANTONIO,TX,78249,(210) 877-8000,SPECIAL,BEXAR,29.59073867,-98.59035687,y,y,y,y,y,y
MCALLEN HEART HOSPITAL,1900 S D ST,MCALLEN,TX,78503,(956) 994-2000,SPECIAL,HIDALGO,26.18368016,-98.21822053,y,y,y,y,y,y
METHODIST SPECIALTY & TRANSPLANT HOSPITAL,8026 FLOYD CURL DR,SAN ANTONIO,TX,78229,(210) 575-8168,SPECIAL,BEXAR,29.51422403,-98.57559924,y,y,y,y,y,y
SCOTT & WHITE PAVILION,1815 SOUTH 31ST STREET,TEMPLE,TX,76504,(254) 724-4406,SPECIAL,BELL,31.08159961,-97.36289358,y,y,y,y,y,y
ALTUS BAYTOWN HOSPITAL,1455 MANOR DR,BAYTOWN,TX,77521,(281) 837-7600,SPECIAL,HARRIS,29.7719621,-94.98134416,y,y,y,y,y,y
THE CORPUS CHRISTI MEDICAL CENTER - THE HEART HOSPITAL,7002 WILLIAMS DRIVE,CORPUS CHRISTI,TX,78413,(361) 761-6800,SPECIAL,NUECES,27.69273454,-97.34576165,y,y,y,y,y,y
PHYSICIANS SURGICAL HOSPITAL - PANHANDLE CAMPUS,7100 WEST 9TH STREET,AMARILLO,TX,79106,(806) 212-0247,SPECIAL,POTTER,35.20661691,-101.9186901,y,y,y,y,y,y
PARKWAY SURGICAL AND CARDIOVASCULAR HOSPITAL,3200 NORTH TARRANT PARKWAY,FORT WORTH,TX,76177,(817) 502-7300,SPECIAL,TARRANT,32.89687799,-97.31290555,y,y,y,y,y,y
ST DAVIDS SURGICAL HOSPITAL A CAMPUS OF NORTH AUSTIN MEDICAL CTR,1201 W LOUIS HENNA BLVD,AUSTIN,TX,78681,(512) 901-1000,SPECIAL,WILLIAMSON,30.47714096,-97.69045862,y,y,y,y,y,y
WOMEN'S HOSPITAL AT RENAISSANCE,5502 SOUTH MCCOLL,EDINBURG,TX,78539,(956) 362-5601,WOMEN,HIDALGO,26.25267437,-98.20309755,y,y,y,y,y,y
KINDRED HOSPITAL OF TUCSON,355 NORTH WILMOT,TUCSON,AZ,85711,(520) 584-4500,LONG TERM CARE,PIMA,32.22564684,-110.8585163,n,n,n,n,n,y
PALO VERDE BEHAVIORAL HEALTH,2695 NORTH CRAYCROFT ROAD,TUCSON,AZ,85712,(520) 324-4340,PSYCHIATRIC,PIMA,32.25593768,-110.8761188,y,n,n,n,n,y
MEDICAL WEST AN AFFILIATE OF UAB HEALTH SYSTEM,995 NINTH AVENUE SOUTHWEST,BESSEMER,AL,35021,(205) 481-7118,GENERAL ACUTE CARE,JEFFERSON,33.37340448,-86.99328975,y,y,y,y,y,y
UNIVERSITY MEDICAL CENTER OF SOUTHERN NEVADA,1800 WEST CHARLESTON BOULEVARD,LAS VEGAS,NV,89102,(702) 383-2000,GENERAL ACUTE CARE,CLARK,36.15962373,-115.1674567,y,y,y,y,y,y
GREENE COUNTY HOSPITAL,509 WILSON AVENUE,EUTAW,AL,35462,(205) 931-6814,GENERAL ACUTE CARE,GREENE,32.84324894,-87.89048348,y,y,y,y,y,y
DESERT PARKWAY BEHAVIORAL HEALTHCARE HOSPITAL LLC,3247 S MARYLAND PARKWAY,LAS VEGAS,NV,89109,(702) 776-3500,PSYCHIATRIC,CLARK,36.13059266,-115.1382301,y,n,n,n,n,y
NORTH ALABAMA REGIONAL HOSPITAL,4218 HWY 31 S,DECATUR,AL,35609,(256) 560-2200,PSYCHIATRIC,MORGAN,34.5216167,-86.96702901,y,n,n,n,n,y
SANA BEHAVIORAL HEALTH - LAS VEGAS,5975 WEST TWAIN AVENUE,LAS VEGAS,NV,89103,(801) 559-7764,PSYCHIATRIC,CLARK,36.12129149,-115.2233553,y,n,n,n,n,y
CULLMAN REGIONAL MEDICAL CENTER,1912 ALABAMA HIGHWAY 157,CULLMAN,AL,35055,(256) 737-2598,GENERAL ACUTE CARE,CULLMAN,34.2013272,-86.80572957,y,y,y,y,y,y
NOLAND HOSPITAL SHELBY LLC,1000 FIRST STREET NORTH,ALABASTER,AL,35007,(205) 783-8440,LONG TERM CARE,SHELBY,33.25338552,-86.81298709,n,n,n,n,n,y
DESERT WILLOW TREATMENT CENTER,6171 WEST CHARLESTON BOULEVARD,LAS VEGAS,NV,89146,(702) 486-8900,PSYCHIATRIC,CLARK,36.15661907,-115.2289606,y,n,n,n,n,y
DINI-TOWNSEND HOSPITAL AT NORTHERN NEVADA ADULT MENTAL HEALTH SERVICES,480 GALLETI WAY,SPARKS,NV,89431,(775) 688-2001,PSYCHIATRIC,WASHOE,39.53154123,-119.7748309,y,n,n,n,n,y
HARMON HOSPTAL,2170 EAST HARMON AVENUE,LAS VEGAS,NV,89119,(702) 794-0100,REHABILITATION,CLARK,36.10792225,-115.1227576,y,y,n,n,n,y
HEALTHSOUTH DESERT CANYON REHABILITATION HOSPITAL,9175 WEST OQUENDO ROAD,LAS VEGAS,NV,89148,(702) 252-7342,REHABILITATION,CLARK,36.08034978,-115.2924483,y,y,n,n,n,y
DECATUR MORGAN HOSPITAL - PARKWAY CAMPUS,1874 BELTLINE ROAD S.W.,DECATUR,AL,35601,(256) 350-2211,GENERAL ACUTE CARE,MORGAN,34.57689679,-87.01580866,y,y,y,y,y,y
HEALTHSOUTH REHABILITATION HOSPITAL OF HENDERSON,10301 JEFFREYS STREET,HENDERSON,NV,89052,(702) 939-9400,REHABILITATION,CLARK,36.00110213,-115.1208832,y,y,n,n,n,y
BAPTIST MEDICAL CENTER - PRINCETON,701 PRINCETON AVENUE S.W.,BIRMINGHAM,AL,35211,(205) 715-5309,GENERAL ACUTE CARE,JEFFERSON,33.49800653,-86.84718778,y,y,y,y,y,y
DECATUR MORGAN HOSPITAL - DECATUR CAMPUS,1201 SEVENTH STREET SOUTHEAST,DECATUR,AL,35601,(256) 341-2000,GENERAL ACUTE CARE,MORGAN,34.59034409,-86.97148153,y,y,y,y,y,y
HEALTHSOUTH REHABILITATION HOSPITAL OF GADSDEN,801 GOODYEAR AVENUE,GADSDEN,AL,35903,(256) 439-5000,REHABILITATION,ETOWAH,34.00674122,-85.96848844,y,y,n,n,n,y
FLOWERS HOSPITAL,4370 WEST MAIN STREET,DOTHAN,AL,36302,(334) 793-5000,GENERAL ACUTE CARE,HOUSTON,31.23742999,-85.45704246,y,y,y,y,y,y
